[
  {
    "id": 41837,
    "nom": "CABINET CASTAN",
    "siren": "810668640",
    "forme_juridique": "Société à responsabilité limitée",
    "adresse": "12 RUE EUGENE LISBONNE",
    "code_postal": "34000",
    "ville": "MONTPELLIER",
    "activites": [],
    "lat": 43.6105654,
    "lng": 3.8738645
  },
  {
    "id": 56122,
    "nom": "eXp GLOBAL FRANCE",
    "siren": "890710700",
    "forme_juridique": "Société par actions simplifiée",
    "adresse": "266 PLACE Ernest Granier",
    "code_postal": "34000",
    "ville": "MONTPELLIER",
    "activites": [],
    "lat": 43.6014619,
    "lng": 3.9004843
  },
  {
    "id": 30049,
    "nom": "ELLIPSE IMMOBILIER PATRIMOINE",
    "siren": "510157548",
    "forme_juridique": "Société à responsabilité limitée",
    "adresse": "1500 AVENUE DE LA POMPIGNANE",
    "code_postal": "34000",
    "ville": "MONTPELLIER",
    "activites": [],
    "lat": 43.6074432,
    "lng": 3.8985855
  },
  {
    "id": 80540,
    "nom": "BMC CONSEILS ET TRANSACTIONS",
    "siren": "499205862",
    "forme_juridique": "Société à responsabilité limitée",
    "adresse": "174 RUE PABLO CASALS",
    "code_postal": "34000",
    "ville": "MONTPELLIER",
    "activites": [],
    "lat": 43.6218638,
    "lng": 3.8889747
  },
  {
    "id": 84940,
    "nom": "L.V.I IMMO",
    "siren": "930709852",
    "forme_juridique": "Société à responsabilité limitée",
    "adresse": "16 ALLÉE DE L'EUBEE",
    "code_postal": "34000",
    "ville": "MONTPELLIER",
    "activites": [],
    "lat": 43.6072863,
    "lng": 3.8890862
  },
  {
    "id": 86016,
    "nom": "Sisters and Tom Immo",
    "siren": "982875049",
    "forme_juridique": "Société par actions simplifiée",
    "adresse": "494 RUE Léon Blum",
    "code_postal": "34000",
    "ville": "MONTPELLIER",
    "activites": [],
    "lat": 43.6061201,
    "lng": 3.8896355
  },
  {
    "id": 86212,
    "nom": "LE CHENE PATRIMONIAL",
    "siren": "929887594",
    "forme_juridique": "Société par actions simplifiée",
    "adresse": "50 RUE DORA MAAR",
    "code_postal": "34070",
    "ville": "MONTPELLIER",
    "activites": [],
    "lat": 43.6011863,
    "lng": 3.8622047
  },
  {
    "id": 59844,
    "nom": "IDEA CONSEILS",
    "siren": "447929639",
    "forme_juridique": "Société par actions simplifiée",
    "adresse": "85 ROUTE DE BOIRARGUES",
    "code_postal": "34000",
    "ville": "MONTPELLIER",
    "activites": [],
    "lat": 43.5937823,
    "lng": 3.9360442
  },
  {
    "id": 35411,
    "nom": "CAISSE D'EPARGNE ET DE PREVOYANCE DU LANGUEDOC ROUSSILLON",
    "siren": "383451267",
    "forme_juridique": "Société commerciale autre",
    "adresse": "254 RUE MICHEL TEULE",
    "code_postal": "34000",
    "ville": "MONTPELLIER",
    "activites": [],
    "lat": 43.6253667,
    "lng": 3.8385146
  },
  {
    "id": 53217,
    "nom": "DELTA B PATRIMOINE",
    "siren": "879407609",
    "forme_juridique": "Société par actions simplifiée",
    "adresse": "472 RUE  MARIUS PETIPA",
    "code_postal": "34080",
    "ville": "MONTPELLIER",
    "activites": [],
    "lat": 43.6196326,
    "lng": 3.8214544
  },
  {
    "id": 46909,
    "nom": "RAMBIER IMMOBILIER",
    "siren": "404950487",
    "forme_juridique": "Société à responsabilité limitée",
    "adresse": "232 AVENUE DES MOULINS",
    "code_postal": "34000",
    "ville": "MONTPELLIER",
    "activites": [],
    "lat": 43.6376753,
    "lng": 3.8454215
  },
  {
    "id": 51304,
    "nom": "ESPACE IMMOBILIER",
    "siren": "391962305",
    "forme_juridique": "Société à responsabilité limitée",
    "adresse": "4 AVENUE DE TOULOUSE",
    "code_postal": "34000",
    "ville": "MONTPELLIER",
    "activites": [],
    "lat": 43.6004951,
    "lng": 3.867432
  },
  {
    "id": 44847,
    "nom": "URBAN IMMO TRANSACTION",
    "siren": "529800088",
    "forme_juridique": "Société à responsabilité limitée",
    "adresse": "278 PLACE Ernest Granier",
    "code_postal": "34000",
    "ville": "MONTPELLIER",
    "activites": [],
    "lat": 43.6015344,
    "lng": 3.9002685
  },
  {
    "id": 17757,
    "nom": "LACOMBE IMMOBILIER",
    "siren": "383753456",
    "forme_juridique": "Société par actions simplifiée",
    "adresse": "15 PASSAGE LONJON",
    "code_postal": "34000",
    "ville": "MONTPELLIER",
    "activites": [],
    "lat": 43.609084,
    "lng": 3.8797718
  },
  {
    "id": 31557,
    "nom": "JNCA",
    "siren": "831740121",
    "forme_juridique": "Société à responsabilité limitée",
    "adresse": "16 RUE Subleyras",
    "code_postal": "34000",
    "ville": "MONTPELLIER",
    "activites": [],
    "lat": 43.6109077,
    "lng": 3.8655255
  },
  {
    "id": 58957,
    "nom": "FLOORS IMMOBILIER",
    "siren": "895311678",
    "forme_juridique": "Société à responsabilité limitée",
    "adresse": "222 PLACE ERNEST GRANIER",
    "code_postal": "34000",
    "ville": "MONTPELLIER",
    "activites": [],
    "lat": 43.6013888,
    "lng": 3.9007151
  },
  {
    "id": 71213,
    "nom": "Non renseigné",
    "siren": "980682280",
    "forme_juridique": "",
    "adresse": "367 RUE de la Pépinière",
    "code_postal": "34000",
    "ville": "MONTPELLIER",
    "activites": [],
    "lat": 43.6151381,
    "lng": 3.8918245
  },
  {
    "id": 74966,
    "nom": "IMMOBILIER CASANOVA",
    "siren": "489997304",
    "forme_juridique": "Société par actions simplifiée",
    "adresse": "2 RUE de la barralerie ",
    "code_postal": "34000",
    "ville": "MONTPELLIER",
    "activites": [],
    "lat": 43.6112036,
    "lng": 3.875373
  },
  {
    "id": 48511,
    "nom": "AGENCE IMMOBILIERE M",
    "siren": "848810057",
    "forme_juridique": "Société à responsabilité limitée",
    "adresse": "136 RUE EMILE LITTRE",
    "code_postal": "34090",
    "ville": "MONTPELLIER",
    "activites": [],
    "lat": 43.6248083,
    "lng": 3.8762382
  },
  {
    "id": 35164,
    "nom": "MAS IMMOBILIER",
    "siren": "423770494",
    "forme_juridique": "Société à responsabilité limitée",
    "adresse": "418 RUE DU MAS DE VERCHANT",
    "code_postal": "34000",
    "ville": "MONTPELLIER",
    "activites": [],
    "lat": 43.6198635,
    "lng": 3.9133271
  },
  {
    "id": 75149,
    "nom": "SIGN IMMO",
    "siren": "980374862",
    "forme_juridique": "Société à responsabilité limitée",
    "adresse": "1025 AVENUE HENRI BECQUEREL",
    "code_postal": "34000",
    "ville": "MONTPELLIER",
    "activites": [],
    "lat": 43.6089644,
    "lng": 3.9155257
  },
  {
    "id": 122156,
    "nom": "ROXIM PROMOTION",
    "siren": "351244553",
    "forme_juridique": "Société par actions simplifiée",
    "adresse": "448 RUE DE LA ROQUETURIERE",
    "code_postal": "34090",
    "ville": "MONTPELLIER",
    "activites": [],
    "lat": 43.6299818,
    "lng": 3.8859784
  },
  {
    "id": 74627,
    "nom": "THE BEST PARTNER",
    "siren": "981009095",
    "forme_juridique": "Société par actions simplifiée",
    "adresse": "170 RUE Léon Blum",
    "code_postal": "34000",
    "ville": "MONTPELLIER",
    "activites": [],
    "lat": 43.6088001,
    "lng": 3.8905665
  },
  {
    "id": 35692,
    "nom": "CELLENEUVE IMMOBILIER - CABINET PECOUL",
    "siren": "379653306",
    "forme_juridique": "Société à responsabilité limitée",
    "adresse": "1732 AVENUE DE MONSIEUR TESTE",
    "code_postal": "34080",
    "ville": "MONTPELLIER",
    "activites": [],
    "lat": 43.5994218,
    "lng": 3.8406038
  },
  {
    "id": 113802,
    "nom": "GCC COMPANY",
    "siren": "988228672",
    "forme_juridique": "Société à responsabilité limitée",
    "adresse": "201 RUE PHILIPPE CASTAN",
    "code_postal": "34000",
    "ville": "MONTPELLIER",
    "activites": [],
    "lat": 43.626786,
    "lng": 3.886772
  },
  {
    "id": 124271,
    "nom": "COUETTE & OREILLERS",
    "siren": "821426574",
    "forme_juridique": "Société par actions simplifiée",
    "adresse": "9 RUE DE LA MEDITERRANEE",
    "code_postal": "34070",
    "ville": "MONTPELLIER",
    "activites": [],
    "lat": 43.6054668,
    "lng": 3.8831994
  },
  {
    "id": 109810,
    "nom": "HEREDITAS",
    "siren": "941253841",
    "forme_juridique": "Société par actions simplifiée",
    "adresse": "1 RUE CHARLES DE COULOMB",
    "code_postal": "34070",
    "ville": "MONTPELLIER",
    "activites": [],
    "lat": 43.5945637,
    "lng": 3.852757
  },
  {
    "id": 125459,
    "nom": "CITELIS",
    "siren": "807410881",
    "forme_juridique": "Société à responsabilité limitée",
    "adresse": "78E RUE DE L'ETANG DE VIC",
    "code_postal": "34070",
    "ville": "MONTPELLIER",
    "activites": [],
    "lat": 43.5955463,
    "lng": 3.8931168
  },
  {
    "id": 120408,
    "nom": "IMMORAMA",
    "siren": "991682766",
    "forme_juridique": "Société par actions simplifiée",
    "adresse": "48 RUE CLAUDE BALBASTRE",
    "code_postal": "34070",
    "ville": "MONTPELLIER",
    "activites": [],
    "lat": 43.5731943,
    "lng": 3.8613862
  },
  {
    "id": 17389,
    "nom": "LE MAS SAINT COME",
    "siren": "451497440",
    "forme_juridique": "Société à responsabilité limitée",
    "adresse": "8 RUE SAINT PAUL",
    "code_postal": "34000",
    "ville": "MONTPELLIER",
    "activites": [],
    "lat": 43.608691,
    "lng": 3.8756097
  },
  {
    "id": 110935,
    "nom": "L'agora immobilière",
    "siren": "988440244",
    "forme_juridique": "Société par actions simplifiée",
    "adresse": "6 RUE du petit scel",
    "code_postal": "34000",
    "ville": "MONTPELLIER",
    "activites": [],
    "lat": 43.6106609,
    "lng": 3.8745702
  },
  {
    "id": 7909,
    "nom": "CB FINANCES",
    "siren": "434158408",
    "forme_juridique": "Société à responsabilité limitée",
    "adresse": "10 RUE DE LA LOGE",
    "code_postal": "34000",
    "ville": "MONTPELLIER",
    "activites": [],
    "lat": 43.6096971,
    "lng": 3.8776668
  },
  {
    "id": 9994,
    "nom": "C.A.R.I.P",
    "siren": "440813475",
    "forme_juridique": "Société à responsabilité limitée",
    "adresse": "450 RUE BADEN POWELL",
    "code_postal": "34000",
    "ville": "MONTPELLIER",
    "activites": [],
    "lat": 43.6100821,
    "lng": 3.908255
  },
  {
    "id": 10874,
    "nom": "A.A AGENCE AIGLE",
    "siren": "405100603",
    "forme_juridique": "Société à responsabilité limitée",
    "adresse": "628 RUE DE CENTRAYRARGUES",
    "code_postal": "34000",
    "ville": "MONTPELLIER",
    "activites": [],
    "lat": 43.5954038,
    "lng": 3.8877939
  },
  {
    "id": 11817,
    "nom": "PROFIMA",
    "siren": "351476437",
    "forme_juridique": "Société à responsabilité limitée",
    "adresse": "13 AVENUE LEPIC",
    "code_postal": "34070",
    "ville": "MONTPELLIER",
    "activites": [],
    "lat": 43.6010996,
    "lng": 3.8650703
  },
  {
    "id": 21883,
    "nom": "AGENCE DU COURREAU",
    "siren": "499345049",
    "forme_juridique": "Société par actions simplifiée",
    "adresse": "51 RUE Du Faubourg du Courreau",
    "code_postal": "34000",
    "ville": "MONTPELLIER",
    "activites": [],
    "lat": 43.6083765,
    "lng": 3.8690642
  },
  {
    "id": 19477,
    "nom": "GROUPE MARIANNE",
    "siren": "488148669",
    "forme_juridique": "Société à responsabilité limitée",
    "adresse": "1348 AVENUE RAYMOND DUGRAND",
    "code_postal": "34000",
    "ville": "MONTPELLIER",
    "activites": [],
    "lat": 43.5922669,
    "lng": 3.9056318
  },
  {
    "id": 24485,
    "nom": "ATIMMO",
    "siren": "494391808",
    "forme_juridique": "Société à responsabilité limitée",
    "adresse": "1348 AVENUE DE LA MER",
    "code_postal": "34000",
    "ville": "MONTPELLIER",
    "activites": [],
    "lat": 43.5922669,
    "lng": 3.9056318
  },
  {
    "id": 28817,
    "nom": "CITYA COGESIM",
    "siren": "469800312",
    "forme_juridique": "Société à responsabilité limitée",
    "adresse": "12 RUE FOCH",
    "code_postal": "34000",
    "ville": "MONTPELLIER",
    "activites": [],
    "lat": 43.6109563,
    "lng": 3.8740246
  },
  {
    "id": 31844,
    "nom": "COMPARIMMONEUF",
    "siren": "808232607",
    "forme_juridique": "Société par actions simplifiée",
    "adresse": "85 ROUTE DE BOIRARGUES",
    "code_postal": "34000",
    "ville": "MONTPELLIER",
    "activites": [],
    "lat": 43.5937823,
    "lng": 3.9360442
  },
  {
    "id": 31592,
    "nom": "JACQUES BORDRY IMMOBILIER",
    "siren": "320976103",
    "forme_juridique": "Société à responsabilité limitée",
    "adresse": "12 BOULEVARD DE STRASBOURG",
    "code_postal": "34000",
    "ville": "MONTPELLIER",
    "activites": [],
    "lat": 43.602972,
    "lng": 3.8816166
  },
  {
    "id": 33872,
    "nom": "AMB TRANSAC",
    "siren": "828490318",
    "forme_juridique": "Société à responsabilité limitée",
    "adresse": "9 RUE DE LA VIEILLE INTENDANCE",
    "code_postal": "34090",
    "ville": "MONTPELLIER",
    "activites": [],
    "lat": 43.6120104,
    "lng": 3.8758392
  },
  {
    "id": 37892,
    "nom": "L'IMMOBILIA",
    "siren": "317887412",
    "forme_juridique": "Société à responsabilité limitée",
    "adresse": "310 AVENUE DE LA POMPIGNANE",
    "code_postal": "34000",
    "ville": "MONTPELLIER",
    "activites": [],
    "lat": 43.608814,
    "lng": 3.8991067
  },
  {
    "id": 39090,
    "nom": "FG STRATEGIES",
    "siren": "809971930",
    "forme_juridique": "Société par actions simplifiée",
    "adresse": "385 RUE ALFRED NOBEL",
    "code_postal": "34000",
    "ville": "MONTPELLIER",
    "activites": [],
    "lat": 43.6129697,
    "lng": 3.9121622
  },
  {
    "id": 39558,
    "nom": "LMA IMMOBILIER",
    "siren": "839871068",
    "forme_juridique": "Société par actions simplifiée",
    "adresse": "14 RUE Four des Flammes",
    "code_postal": "34000",
    "ville": "MONTPELLIER",
    "activites": [],
    "lat": 43.6077261,
    "lng": 3.8744044
  },
  {
    "id": 69326,
    "nom": "ELOY IMMOBILIER",
    "siren": "951902600",
    "forme_juridique": "Société à responsabilité limitée",
    "adresse": "16 RUE DU FAUBOURG SAINT JAUMES",
    "code_postal": "34000",
    "ville": "MONTPELLIER",
    "activites": [],
    "lat": 43.6148029,
    "lng": 3.8700167
  },
  {
    "id": 40189,
    "nom": "GROUPE I.S.I.",
    "siren": "444231088",
    "forme_juridique": "Société par actions simplifiée",
    "adresse": "118 RUE FAMAGOUSTE",
    "code_postal": "34070",
    "ville": "MONTPELLIER",
    "activites": [],
    "lat": 43.601271,
    "lng": 3.9001083
  },
  {
    "id": 41016,
    "nom": "PONCET & PONCET",
    "siren": "447557539",
    "forme_juridique": "Société à responsabilité limitée",
    "adresse": "72 GRAND RUE Jean-Moulin",
    "code_postal": "34000",
    "ville": "MONTPELLIER",
    "activites": [],
    "lat": 43.6069185,
    "lng": 3.8760849
  },
  {
    "id": 69397,
    "nom": "PRESTA CIF",
    "siren": "947777611",
    "forme_juridique": "Société à responsabilité limitée",
    "adresse": "49 RUE DE BARCELONE",
    "code_postal": "34070",
    "ville": "MONTPELLIER",
    "activites": [],
    "lat": 43.6036638,
    "lng": 3.8880875
  },
  {
    "id": 41478,
    "nom": "ASE Immobilier",
    "siren": "788707156",
    "forme_juridique": "Société à responsabilité limitée",
    "adresse": "25 QUAI Des Tanneurs",
    "code_postal": "34090",
    "ville": "MONTPELLIER",
    "activites": [],
    "lat": 43.6161652,
    "lng": 3.874774
  },
  {
    "id": 69434,
    "nom": "RACINE CARRE",
    "siren": "951481571",
    "forme_juridique": "Société à responsabilité limitée",
    "adresse": "190 RUE DE JAUSSERAND",
    "code_postal": "34000",
    "ville": "MONTPELLIER",
    "activites": [],
    "lat": 43.6131936,
    "lng": 3.9007433
  },
  {
    "id": 42876,
    "nom": "SV IMMO",
    "siren": "803346873",
    "forme_juridique": "Société par actions simplifiée",
    "adresse": "559 RUE JEAN THUILE",
    "code_postal": "34090",
    "ville": "MONTPELLIER",
    "activites": [],
    "lat": 43.6320173,
    "lng": 3.875559
  },
  {
    "id": 43797,
    "nom": "VOUSCONSEILLER.COM",
    "siren": "503779324",
    "forme_juridique": "Société à responsabilité limitée",
    "adresse": "10 RUE DE L'AIGUILLERIE",
    "code_postal": "34000",
    "ville": "MONTPELLIER",
    "activites": [],
    "lat": 43.6104057,
    "lng": 3.8776172
  },
  {
    "id": 46734,
    "nom": "EXACT IMMO",
    "siren": "480444322",
    "forme_juridique": "Société par actions simplifiée",
    "adresse": "56 AVENUE Charles Flahault",
    "code_postal": "34090",
    "ville": "MONTPELLIER",
    "activites": [],
    "lat": 43.6267904,
    "lng": 3.8594306
  },
  {
    "id": 47058,
    "nom": "RAFAEL IMMOBILIER",
    "siren": "501309314",
    "forme_juridique": "Société à responsabilité limitée",
    "adresse": "295 RUE DE LA MARQUEROSE",
    "code_postal": "34070",
    "ville": "MONTPELLIER",
    "activites": [],
    "lat": 43.5895935,
    "lng": 3.8712383
  },
  {
    "id": 51448,
    "nom": "T2B PRESTIGE",
    "siren": "852422096",
    "forme_juridique": "Société par actions simplifiée",
    "adresse": "35 RUE JEAN FERRAT",
    "code_postal": "34000",
    "ville": "MONTPELLIER",
    "activites": [],
    "lat": 43.5995038,
    "lng": 3.9067183
  },
  {
    "id": 52919,
    "nom": "DAUPHIN IMMOBILIER",
    "siren": "479500886",
    "forme_juridique": "Société à responsabilité limitée",
    "adresse": "427 AVENUE Des Etats du Languedoc",
    "code_postal": "34000",
    "ville": "MONTPELLIER",
    "activites": [],
    "lat": 43.6068844,
    "lng": 3.8865358
  },
  {
    "id": 41229,
    "nom": "NETAC",
    "siren": "750668790",
    "forme_juridique": "Société par actions simplifiée",
    "adresse": "621 RUE GEORGES MELIES",
    "code_postal": "34000",
    "ville": "MONTPELLIER",
    "activites": [],
    "lat": 43.6066572,
    "lng": 3.9215943
  },
  {
    "id": 8813,
    "nom": "CLAPAS IMMOBILIER",
    "siren": "809546716",
    "forme_juridique": "Société à responsabilité limitée",
    "adresse": "494 RUE LEON BLUM",
    "code_postal": "34000",
    "ville": "MONTPELLIER",
    "activites": [],
    "lat": 43.6061201,
    "lng": 3.8896355
  },
  {
    "id": 9676,
    "nom": "FONCIA MONTPELLIER",
    "siren": "343765178",
    "forme_juridique": "Société par actions simplifiée",
    "adresse": "185 RUE LEON BLUM",
    "code_postal": "34000",
    "ville": "MONTPELLIER",
    "activites": [],
    "lat": 43.6086802,
    "lng": 3.8907499
  },
  {
    "id": 54675,
    "nom": "PRODEOM GESTION",
    "siren": "884072356",
    "forme_juridique": "Société par actions simplifiée",
    "adresse": "1025 AVENUE Henri Becquerel",
    "code_postal": "34000",
    "ville": "MONTPELLIER",
    "activites": [],
    "lat": 43.6089644,
    "lng": 3.9155257
  },
  {
    "id": 28032,
    "nom": "DOMITEAM",
    "siren": "813285764",
    "forme_juridique": "Société à responsabilité limitée",
    "adresse": "381 AVENUE DU MAS ARGELLIERS",
    "code_postal": "34070",
    "ville": "MONTPELLIER",
    "activites": [],
    "lat": 43.5877967,
    "lng": 3.8902398
  },
  {
    "id": 55586,
    "nom": "ACTIKAN IMMO",
    "siren": "889109187",
    "forme_juridique": "Société par actions simplifiée",
    "adresse": "1 IMPASSE DU CHAPEAU ROUGE",
    "code_postal": "34000",
    "ville": "MONTPELLIER",
    "activites": [],
    "lat": 43.4486672,
    "lng": 3.6123471
  },
  {
    "id": 11808,
    "nom": "CORUM IMMOBILIER",
    "siren": "480090513",
    "forme_juridique": "Société à responsabilité limitée",
    "adresse": "15 RUE DU FAUBOURG DE NIMES",
    "code_postal": "34000",
    "ville": "MONTPELLIER",
    "activites": [],
    "lat": 43.6142366,
    "lng": 3.8813391
  },
  {
    "id": 31936,
    "nom": "DUCENTRE",
    "siren": "517534442",
    "forme_juridique": "Société à responsabilité limitée",
    "adresse": "18 RUE Saint Guilhem",
    "code_postal": "34000",
    "ville": "MONTPELLIER",
    "activites": [],
    "lat": 43.6097746,
    "lng": 3.8755026
  },
  {
    "id": 58225,
    "nom": "3-6 IMMO",
    "siren": "894344167",
    "forme_juridique": "Société par actions simplifiée",
    "adresse": "626 RUE Jacques Bounin",
    "code_postal": "34000",
    "ville": "MONTPELLIER",
    "activites": [],
    "lat": 43.5888542,
    "lng": 3.8637971
  },
  {
    "id": 10033,
    "nom": "FUTUROPARK GERANCE ET TRANSACTIONS",
    "siren": "819162918",
    "forme_juridique": "Société en nom collectif",
    "adresse": "1300 AVENUE ALBERT EINSTEIN",
    "code_postal": "34000",
    "ville": "MONTPELLIER",
    "activites": [],
    "lat": 43.6100379,
    "lng": 3.9129262
  },
  {
    "id": 23235,
    "nom": "INVESTIR PATRIMOINE",
    "siren": "825255797",
    "forme_juridique": "Société par actions simplifiée",
    "adresse": "298 RUE D'ALCO",
    "code_postal": "34080",
    "ville": "MONTPELLIER",
    "activites": [],
    "lat": 43.6148774,
    "lng": 3.8432869
  },
  {
    "id": 49484,
    "nom": "L'AGENCE SAINT ROCH",
    "siren": "849323985",
    "forme_juridique": "Société à responsabilité limitée",
    "adresse": "15 RUE DES SOEURS NOIRES",
    "code_postal": "34000",
    "ville": "MONTPELLIER",
    "activites": [],
    "lat": 43.6088779,
    "lng": 3.8749546
  },
  {
    "id": 46433,
    "nom": "EVOLYS PATRIMOINE",
    "siren": "521048298",
    "forme_juridique": "Société à responsabilité limitée",
    "adresse": "10 RUE DE LA LOGE",
    "code_postal": "34000",
    "ville": "MONTPELLIER",
    "activites": [],
    "lat": 43.6096971,
    "lng": 3.8776668
  },
  {
    "id": 48701,
    "nom": "M & A IMMOBILIER",
    "siren": "478057110",
    "forme_juridique": "Société à responsabilité limitée",
    "adresse": "63 AVENUE Du Pont Juvénal",
    "code_postal": "34000",
    "ville": "MONTPELLIER",
    "activites": [],
    "lat": 43.605588,
    "lng": 3.8898915
  },
  {
    "id": 64873,
    "nom": "HH  GESTION OCCITANIE",
    "siren": "909598104",
    "forme_juridique": "Association",
    "adresse": "64 AVENUE DE CASTELNAU",
    "code_postal": "34090",
    "ville": "MONTPELLIER",
    "activites": [],
    "lat": 43.6233355,
    "lng": 3.8861349
  },
  {
    "id": 35710,
    "nom": "AGENCE DU LEZ",
    "siren": "838599579",
    "forme_juridique": "Société par actions simplifiée",
    "adresse": "1348 AVENUE  Raymond Dugrand",
    "code_postal": "34000",
    "ville": "MONTPELLIER",
    "activites": [],
    "lat": 43.5922669,
    "lng": 3.9056318
  },
  {
    "id": 65988,
    "nom": "INFIN'IMMO",
    "siren": "918634056",
    "forme_juridique": "Société à responsabilité limitée",
    "adresse": "58 IMPASSE CARAVELLE",
    "code_postal": "34000",
    "ville": "MONTPELLIER",
    "activites": [],
    "lat": 43.6136765,
    "lng": 3.8924923
  },
  {
    "id": 60714,
    "nom": "PRESTIGE IMMO NEUF",
    "siren": "892030081",
    "forme_juridique": "Société à responsabilité limitée",
    "adresse": "36 RUE ANNA PAVLOVA",
    "code_postal": "34000",
    "ville": "MONTPELLIER",
    "activites": [],
    "lat": 43.596668,
    "lng": 3.9053506
  },
  {
    "id": 46750,
    "nom": "IPRO34",
    "siren": "843907833",
    "forme_juridique": "Société par actions simplifiée",
    "adresse": "172 RUE RAIMON DE TRENCAVEL",
    "code_postal": "34070",
    "ville": "MONTPELLIER",
    "activites": [],
    "lat": 43.5899998,
    "lng": 3.8590231
  },
  {
    "id": 66642,
    "nom": "ACD IMMOBILIER",
    "siren": "494307929",
    "forme_juridique": "Société à responsabilité limitée",
    "adresse": "6 BOULEVARD BERTHELOT",
    "code_postal": "34000",
    "ville": "MONTPELLIER",
    "activites": [],
    "lat": 43.6007664,
    "lng": 3.8701857
  },
  {
    "id": 42854,
    "nom": "A2IMMO",
    "siren": "507977486",
    "forme_juridique": "Société à responsabilité limitée",
    "adresse": "21 RUE DU FAUBOURG DE LA SAUNERIE",
    "code_postal": "34000",
    "ville": "MONTPELLIER",
    "activites": [],
    "lat": 43.6056284,
    "lng": 3.8753231
  },
  {
    "id": 66857,
    "nom": "L'AGENCE POUR VOUS",
    "siren": "921237038",
    "forme_juridique": "Société par actions simplifiée",
    "adresse": "295 AVENUE du Château d'O",
    "code_postal": "34090",
    "ville": "MONTPELLIER",
    "activites": [],
    "lat": 43.6275881,
    "lng": 3.8413683
  },
  {
    "id": 21195,
    "nom": "DEFLANDRE ",
    "siren": "823974464",
    "forme_juridique": "Société à responsabilité limitée",
    "adresse": "1 RUE D'ALBISSON",
    "code_postal": "34000",
    "ville": "MONTPELLIER",
    "activites": [],
    "lat": 43.610934,
    "lng": 3.8734895
  },
  {
    "id": 21322,
    "nom": "AJL",
    "siren": "438567828",
    "forme_juridique": "Société à responsabilité limitée",
    "adresse": "381 AVENUE DU MAS ARGELLIERS",
    "code_postal": "34070",
    "ville": "MONTPELLIER",
    "activites": [],
    "lat": 43.5877967,
    "lng": 3.8902398
  },
  {
    "id": 69851,
    "nom": "EMA DEVELOPPEMENT",
    "siren": "953109600",
    "forme_juridique": "Société par actions simplifiée",
    "adresse": "121 AVENUE DE LODEVE",
    "code_postal": "34070",
    "ville": "MONTPELLIER",
    "activites": [],
    "lat": 43.610508,
    "lng": 3.8494111
  },
  {
    "id": 24130,
    "nom": "GR IMMOBILIER",
    "siren": "489141663",
    "forme_juridique": "Société à responsabilité limitée",
    "adresse": "53 PLACE THERMIDOR",
    "code_postal": "34000",
    "ville": "MONTPELLIER",
    "activites": [],
    "lat": 43.6015332,
    "lng": 3.898451
  },
  {
    "id": 51043,
    "nom": "URBANESENS",
    "siren": "852453943",
    "forme_juridique": "Société à responsabilité limitée",
    "adresse": "51 RUE THOR ",
    "code_postal": "34000",
    "ville": "MONTPELLIER",
    "activites": [],
    "lat": 43.616915,
    "lng": 3.9146037
  },
  {
    "id": 57246,
    "nom": "H & C TRANSACTION GESTION",
    "siren": "891543605",
    "forme_juridique": "Société par actions simplifiée",
    "adresse": "54 RUE SHIRIN EBADI",
    "code_postal": "34000",
    "ville": "MONTPELLIER",
    "activites": [],
    "lat": 43.5983904,
    "lng": 3.9010383
  },
  {
    "id": 89248,
    "nom": "HIBRID",
    "siren": "921252102",
    "forme_juridique": "Société par actions simplifiée",
    "adresse": "1348 AVENUE RAYMOND DUGRAND",
    "code_postal": "34000",
    "ville": "MONTPELLIER",
    "activites": [],
    "lat": 43.5922669,
    "lng": 3.9056318
  },
  {
    "id": 2139,
    "nom": "DP CARRE",
    "siren": "530814904",
    "forme_juridique": "Société par actions simplifiée",
    "adresse": "45 RUE DE LA VIEILLE POSTE",
    "code_postal": "34000",
    "ville": "MONTPELLIER",
    "activites": [],
    "lat": 43.6102203,
    "lng": 3.8994136
  },
  {
    "id": 94033,
    "nom": "IMMOBILIERE FRANCAISE DE GESTION CHEMARIN",
    "siren": "519838197",
    "forme_juridique": "Société à responsabilité limitée",
    "adresse": "73 ALLÉE KLEBER",
    "code_postal": "34000",
    "ville": "MONTPELLIER",
    "activites": [],
    "lat": 43.6035222,
    "lng": 3.8868338
  },
  {
    "id": 95925,
    "nom": "DOMDATA",
    "siren": "907513329",
    "forme_juridique": "Société par actions simplifiée",
    "adresse": "10 PLACE FRANCOISE HERITIER",
    "code_postal": "34000",
    "ville": "MONTPELLIER",
    "activites": [],
    "lat": 43.5972034,
    "lng": 3.9232524
  },
  {
    "id": 96667,
    "nom": "CLEVIA IMMOBILIER",
    "siren": "938746260",
    "forme_juridique": "Société par actions simplifiée",
    "adresse": "73 ALLÉE KLEBER",
    "code_postal": "34000",
    "ville": "MONTPELLIER",
    "activites": [],
    "lat": 43.6035222,
    "lng": 3.8868338
  },
  {
    "id": 54298,
    "nom": "SYNDICLAIR LR",
    "siren": "881033005",
    "forme_juridique": "Société par actions simplifiée",
    "adresse": "612 AVENUE D'OCCITANIE",
    "code_postal": "34090",
    "ville": "MONTPELLIER",
    "activites": [],
    "lat": 43.6348592,
    "lng": 3.8570334
  },
  {
    "id": 47151,
    "nom": "136 GESTION",
    "siren": "791146350",
    "forme_juridique": "Société à responsabilité limitée",
    "adresse": "136 AVENUE DE PALAVAS",
    "code_postal": "34070",
    "ville": "MONTPELLIER",
    "activites": [],
    "lat": 43.5941493,
    "lng": 3.8887922
  },
  {
    "id": 121247,
    "nom": "Adrien Graillet Consultant",
    "siren": "933319956",
    "forme_juridique": "Société par actions simplifiée",
    "adresse": "210 RUE EMILE GABORIAU",
    "code_postal": "34000",
    "ville": "MONTPELLIER",
    "activites": [],
    "lat": 43.5986974,
    "lng": 3.8871205
  },
  {
    "id": 109077,
    "nom": "JN Transactions",
    "siren": "945151116",
    "forme_juridique": "Société par actions simplifiée",
    "adresse": "71 AVENUE DE CASTELNAU",
    "code_postal": "34090",
    "ville": "MONTPELLIER",
    "activites": [],
    "lat": 43.6252615,
    "lng": 3.8882001
  },
  {
    "id": 19050,
    "nom": "SOLEIA IMMOBILIER.COM",
    "siren": "451758460",
    "forme_juridique": "Société par actions simplifiée",
    "adresse": "435 AVENUE DU MAJOR FLANDRE",
    "code_postal": "34090",
    "ville": "MONTPELLIER",
    "activites": [],
    "lat": 43.6293326,
    "lng": 3.8714767
  },
  {
    "id": 13687,
    "nom": "DISTRIMMO",
    "siren": "485202808",
    "forme_juridique": "Société par actions simplifiée",
    "adresse": "1 RUE De l'aiguillerie",
    "code_postal": "34000",
    "ville": "MONTPELLIER",
    "activites": [],
    "lat": 43.6102175,
    "lng": 3.8773379
  },
  {
    "id": 51873,
    "nom": "SGC IMMO",
    "siren": "878304377",
    "forme_juridique": "Société par actions simplifiée",
    "adresse": "222 PLACE ERNEST GRANIER",
    "code_postal": "34000",
    "ville": "MONTPELLIER",
    "activites": [],
    "lat": 43.6013888,
    "lng": 3.9007151
  },
  {
    "id": 58751,
    "nom": "UTOPIA IMMOBILIER",
    "siren": "802964650",
    "forme_juridique": "Société par actions simplifiée",
    "adresse": "13 RUE DE L'ANCIEN COURRIER",
    "code_postal": "34000",
    "ville": "MONTPELLIER",
    "activites": [],
    "lat": 43.6089822,
    "lng": 3.8767611
  },
  {
    "id": 73426,
    "nom": "MON PETIT SYNDIC",
    "siren": "979306255",
    "forme_juridique": "Société par actions simplifiée",
    "adresse": "6 BOULEVARD BERTHELOT",
    "code_postal": "34000",
    "ville": "MONTPELLIER",
    "activites": [],
    "lat": 43.6007664,
    "lng": 3.8701857
  },
  {
    "id": 73624,
    "nom": "LYNX PROMOTION",
    "siren": "948771928",
    "forme_juridique": "Société à responsabilité limitée",
    "adresse": "113 RUE RAYMOND RECOULY",
    "code_postal": "34070",
    "ville": "MONTPELLIER",
    "activites": [],
    "lat": 43.5756006,
    "lng": 3.8665415
  },
  {
    "id": 74548,
    "nom": "CORIM TRANSACTIONS ASSOCIES",
    "siren": "813389350",
    "forme_juridique": "Société à responsabilité limitée",
    "adresse": "1475 AVENUE ALBERT EINSTEIN",
    "code_postal": "34000",
    "ville": "MONTPELLIER",
    "activites": [],
    "lat": 43.6104916,
    "lng": 3.9144422
  },
  {
    "id": 107384,
    "nom": "COOLTA PAT",
    "siren": "933619413",
    "forme_juridique": "Société par actions simplifiée",
    "adresse": "180 RUE EMILE GABORIAU",
    "code_postal": "34070",
    "ville": "MONTPELLIER",
    "activites": [],
    "lat": 43.5985679,
    "lng": 3.8875226
  },
  {
    "id": 113810,
    "nom": "ZELYNVEST",
    "siren": "989022298",
    "forme_juridique": "Société par actions simplifiée",
    "adresse": "203 RUE de Leyde",
    "code_postal": "34080",
    "ville": "MONTPELLIER",
    "activites": [],
    "lat": 43.6236556,
    "lng": 3.81467
  },
  {
    "id": 18896,
    "nom": "ANTIGONE IMMOBILIER",
    "siren": "389199738",
    "forme_juridique": "Société à responsabilité limitée",
    "adresse": "12 PLACE DU MILLENAIRE",
    "code_postal": "34000",
    "ville": "MONTPELLIER",
    "activites": [],
    "lat": 43.6079244,
    "lng": 3.8889846
  },
  {
    "id": 125159,
    "nom": "CASALIA",
    "siren": "994610350",
    "forme_juridique": "Société par actions simplifiée",
    "adresse": "97 RUE FREYR",
    "code_postal": "34000",
    "ville": "MONTPELLIER",
    "activites": [],
    "lat": 43.6168201,
    "lng": 3.916329
  },
  {
    "id": 110923,
    "nom": "Loti conciergerie",
    "siren": "987768090",
    "forme_juridique": "Société à responsabilité limitée",
    "adresse": "218 CHEMIN de Moulares",
    "code_postal": "34070",
    "ville": "MONTPELLIER",
    "activites": [],
    "lat": 43.6035056,
    "lng": 3.8932338
  },
  {
    "id": 818,
    "nom": "ASFIDIA",
    "siren": "444259931",
    "forme_juridique": "Société à responsabilité limitée",
    "adresse": "1 RUE DE VERDUN",
    "code_postal": "34000",
    "ville": "MONTPELLIER",
    "activites": [],
    "lat": 43.6082687,
    "lng": 3.8799977
  },
  {
    "id": 2518,
    "nom": "CLEMENCE IMMOBILIER",
    "siren": "798538005",
    "forme_juridique": "Société à responsabilité limitée",
    "adresse": "300-320 RUE du commandant massoud",
    "code_postal": "34070",
    "ville": "MONTPELLIER",
    "activites": [],
    "lat": 43.5779173,
    "lng": 3.8695187
  },
  {
    "id": 67510,
    "nom": "DATA CAPITAL",
    "siren": "921749784",
    "forme_juridique": "Société à responsabilité limitée",
    "adresse": "11 RUE CITE BENOIT",
    "code_postal": "34000",
    "ville": "MONTPELLIER",
    "activites": [],
    "lat": 43.6070217,
    "lng": 3.8836161
  },
  {
    "id": 67750,
    "nom": "SIMMO",
    "siren": "921294906",
    "forme_juridique": "Société par actions simplifiée",
    "adresse": "13 RUE MAGUELONE",
    "code_postal": "34000",
    "ville": "MONTPELLIER",
    "activites": [],
    "lat": 43.6069178,
    "lng": 3.8799048
  },
  {
    "id": 9606,
    "nom": "FRANCES IMMOBILIER",
    "siren": "419000146",
    "forme_juridique": "Société par actions simplifiée",
    "adresse": "1 RUE DES AUGUSTINS",
    "code_postal": "34000",
    "ville": "MONTPELLIER",
    "activites": [],
    "lat": 43.6102087,
    "lng": 3.8802535
  },
  {
    "id": 12787,
    "nom": "AGENCE A.J.C.",
    "siren": "407486729",
    "forme_juridique": "Société à responsabilité limitée",
    "adresse": "145 AVENUE DE LA JUSTICE DE CASTELNAU",
    "code_postal": "34090",
    "ville": "MONTPELLIER",
    "activites": [],
    "lat": 43.6271378,
    "lng": 3.8716022
  },
  {
    "id": 19156,
    "nom": "HONESTY",
    "siren": "822895462",
    "forme_juridique": "Société à responsabilité limitée",
    "adresse": "222 PLACE ERNEST GRANIER",
    "code_postal": "34000",
    "ville": "MONTPELLIER",
    "activites": [],
    "lat": 43.6013888,
    "lng": 3.9007151
  },
  {
    "id": 20711,
    "nom": "VIVIER DORANCE",
    "siren": "344866777",
    "forme_juridique": "Société par actions simplifiée",
    "adresse": "95 RUE PIERRE FLOURENS",
    "code_postal": "34090",
    "ville": "MONTPELLIER",
    "activites": [],
    "lat": 43.6376633,
    "lng": 3.8320553
  },
  {
    "id": 104758,
    "nom": "CENTRIMMO BIS",
    "siren": "943147439",
    "forme_juridique": "Société par actions simplifiée",
    "adresse": "53 AVENUE DE TOULOUSE",
    "code_postal": "34070",
    "ville": "MONTPELLIER",
    "activites": [],
    "lat": 43.5979963,
    "lng": 3.864972
  },
  {
    "id": 41402,
    "nom": "ODYSSEE",
    "siren": "507826998",
    "forme_juridique": "Société à responsabilité limitée",
    "adresse": "27 PLACE D'Aguesseau",
    "code_postal": "34000",
    "ville": "MONTPELLIER",
    "activites": [],
    "lat": 43.6096931,
    "lng": 3.8847257
  },
  {
    "id": 41599,
    "nom": "I'MMOTION",
    "siren": "514828425",
    "forme_juridique": "Société à responsabilité limitée",
    "adresse": "6 PLACE DU MARCHE AUX FLEURS",
    "code_postal": "34000",
    "ville": "MONTPELLIER",
    "activites": [],
    "lat": 43.6114686,
    "lng": 3.8778587
  },
  {
    "id": 41583,
    "nom": "AGENCE PERSEGOL",
    "siren": "401540794",
    "forme_juridique": "Société à responsabilité limitée",
    "adresse": "4 RUE SAINT PIERRE",
    "code_postal": "34000",
    "ville": "MONTPELLIER",
    "activites": [],
    "lat": 43.6123299,
    "lng": 3.8748895
  },
  {
    "id": 45976,
    "nom": "STRATEGY'S FINANCE",
    "siren": "488343484",
    "forme_juridique": "Société à responsabilité limitée",
    "adresse": "120 RUE DE THOR",
    "code_postal": "34000",
    "ville": "MONTPELLIER",
    "activites": [],
    "lat": 43.617204,
    "lng": 3.9154207
  },
  {
    "id": 46578,
    "nom": "DRACK CONSULTING",
    "siren": "451785869",
    "forme_juridique": "Société par actions simplifiée",
    "adresse": "46 RUE DU FAUBOURG BOUTONNET",
    "code_postal": "34090",
    "ville": "MONTPELLIER",
    "activites": [],
    "lat": 43.6189779,
    "lng": 3.8734655
  },
  {
    "id": 47887,
    "nom": "DEGUARA IMMOBILIER",
    "siren": "380688549",
    "forme_juridique": "Société à responsabilité limitée",
    "adresse": "22 BOULEVARD Du Jeu De Paume",
    "code_postal": "34000",
    "ville": "MONTPELLIER",
    "activites": [],
    "lat": 43.6074949,
    "lng": 3.8740502
  },
  {
    "id": 25433,
    "nom": "C'IMMO",
    "siren": "827444019",
    "forme_juridique": "Société par actions simplifiée",
    "adresse": "47 QUAI DU VERDANSON",
    "code_postal": "34000",
    "ville": "MONTPELLIER",
    "activites": [],
    "lat": 43.6151123,
    "lng": 3.8824261
  },
  {
    "id": 27978,
    "nom": "MG IMMOBILIER",
    "siren": "830221982",
    "forme_juridique": "Société à responsabilité limitée",
    "adresse": "2513 BOULEVARD PAUL VALERY",
    "code_postal": "34000",
    "ville": "MONTPELLIER",
    "activites": [],
    "lat": 43.5970284,
    "lng": 3.8490577
  },
  {
    "id": 12403,
    "nom": "GOUVEIA IMMOBILIER",
    "siren": "442412912",
    "forme_juridique": "Société par actions simplifiée",
    "adresse": "7 BOULEVARD SARRAIL",
    "code_postal": "34000",
    "ville": "MONTPELLIER",
    "activites": [],
    "lat": 43.6093358,
    "lng": 3.8801871
  },
  {
    "id": 56047,
    "nom": "BLEU IMMO",
    "siren": "889863395",
    "forme_juridique": "Société à responsabilité limitée",
    "adresse": "38 ROUTE DE LAVERUNE",
    "code_postal": "34070",
    "ville": "MONTPELLIER",
    "activites": [],
    "lat": 43.6023727,
    "lng": 3.8537155
  },
  {
    "id": 56044,
    "nom": "RENAISSANCE IMMOBILIER",
    "siren": "888083532",
    "forme_juridique": "Société à responsabilité limitée",
    "adresse": "971 RUE DU PIOCH DE BOUTONNET",
    "code_postal": "34090",
    "ville": "MONTPELLIER",
    "activites": [],
    "lat": 43.6305265,
    "lng": 3.8786681
  },
  {
    "id": 41452,
    "nom": "CARREMENT IMMO ",
    "siren": "538852666",
    "forme_juridique": "Société à responsabilité limitée",
    "adresse": "2 BOULEVARD VICTOR HUGO",
    "code_postal": "34000",
    "ville": "MONTPELLIER",
    "activites": [],
    "lat": 43.6063,
    "lng": 3.8779396
  },
  {
    "id": 56424,
    "nom": "FONCIERE BERGE",
    "siren": "789002102",
    "forme_juridique": "Société à responsabilité limitée",
    "adresse": "256 RUE DE THOR",
    "code_postal": "34000",
    "ville": "MONTPELLIER",
    "activites": [],
    "lat": 43.618416,
    "lng": 3.9162165
  },
  {
    "id": 31924,
    "nom": "BIS",
    "siren": "830408100",
    "forme_juridique": "Société par actions simplifiée",
    "adresse": "12 BOULEVARD DE STRASBOURG",
    "code_postal": "34000",
    "ville": "MONTPELLIER",
    "activites": [],
    "lat": 43.602972,
    "lng": 3.8816166
  },
  {
    "id": 57282,
    "nom": "FAUBOURG IMMOBILIER",
    "siren": "893435180",
    "forme_juridique": "Société à responsabilité limitée",
    "adresse": "4 RUE PAGEZY",
    "code_postal": "34000",
    "ville": "MONTPELLIER",
    "activites": [],
    "lat": 43.6058715,
    "lng": 3.8796272
  },
  {
    "id": 43199,
    "nom": "EQUITE FINANCE",
    "siren": "529070104",
    "forme_juridique": "Société par actions simplifiée",
    "adresse": "26 ALLÉE JULES MILHAU",
    "code_postal": "34000",
    "ville": "MONTPELLIER",
    "activites": [],
    "lat": 43.6088471,
    "lng": 3.8825035
  },
  {
    "id": 64897,
    "nom": "MPL-IMMO",
    "siren": "912547064",
    "forme_juridique": "Société à responsabilité limitée",
    "adresse": "38 BOULEVARD DES ARCEAUX",
    "code_postal": "34000",
    "ville": "MONTPELLIER",
    "activites": [],
    "lat": 43.6120718,
    "lng": 3.8631318
  },
  {
    "id": 45975,
    "nom": "STRATEGY'S IMMOBILIER",
    "siren": "538144544",
    "forme_juridique": "Société à responsabilité limitée",
    "adresse": "120 RUE DE THOR",
    "code_postal": "34000",
    "ville": "MONTPELLIER",
    "activites": [],
    "lat": 43.617204,
    "lng": 3.9154207
  },
  {
    "id": 59208,
    "nom": "GL INVEST",
    "siren": "894303692",
    "forme_juridique": "Société par actions simplifiée",
    "adresse": "621 RUE Georges Melies ",
    "code_postal": "34000",
    "ville": "MONTPELLIER",
    "activites": [],
    "lat": 43.6066572,
    "lng": 3.9215943
  },
  {
    "id": 21058,
    "nom": "Non renseigné",
    "siren": "403020894",
    "forme_juridique": "",
    "adresse": "4 PLACE SAINT ROCH",
    "code_postal": "34000",
    "ville": "MONTPELLIER",
    "activites": [],
    "lat": 43.6084953,
    "lng": 3.8756085
  },
  {
    "id": 66110,
    "nom": "LG IMMOBILIER",
    "siren": "917914855",
    "forme_juridique": "Société par actions simplifiée",
    "adresse": "6 BOULEVARD BERTHELOT",
    "code_postal": "34000",
    "ville": "MONTPELLIER",
    "activites": [],
    "lat": 43.6007664,
    "lng": 3.8701857
  },
  {
    "id": 60951,
    "nom": "RHINO IMMOBILIER",
    "siren": "497606707",
    "forme_juridique": "Société à responsabilité limitée",
    "adresse": "4 RUE DURAND",
    "code_postal": "34000",
    "ville": "MONTPELLIER",
    "activites": [],
    "lat": 43.6056442,
    "lng": 3.8771041
  },
  {
    "id": 61445,
    "nom": "GR PORT MARIANNE",
    "siren": "900851940",
    "forme_juridique": "Société à responsabilité limitée",
    "adresse": "290 AVENUE THEROIGNE DE MERICOURT",
    "code_postal": "34000",
    "ville": "MONTPELLIER",
    "activites": [],
    "lat": 43.5976066,
    "lng": 3.8995598
  },
  {
    "id": 3020,
    "nom": "PIERRES BLANCHES IMMOBILIER",
    "siren": "815175450",
    "forme_juridique": "Société par actions simplifiée",
    "adresse": "418 RUE DU MAS DE VERCHANT",
    "code_postal": "34000",
    "ville": "MONTPELLIER",
    "activites": [],
    "lat": 43.6198635,
    "lng": 3.9133271
  },
  {
    "id": 63029,
    "nom": "COMBETTES IMMOBILIER",
    "siren": "907572945",
    "forme_juridique": "Société par actions simplifiée",
    "adresse": "15 RUE DE LA FIGAIRASSE",
    "code_postal": "34070",
    "ville": "MONTPELLIER",
    "activites": [],
    "lat": 43.6075881,
    "lng": 3.8496124
  },
  {
    "id": 6464,
    "nom": "TERTIA CONSEILS",
    "siren": "518036520",
    "forme_juridique": "Société à responsabilité limitée",
    "adresse": "521 RUE GEORGES MELIES",
    "code_postal": "34000",
    "ville": "MONTPELLIER",
    "activites": [],
    "lat": 43.6059233,
    "lng": 3.9204367
  },
  {
    "id": 63065,
    "nom": "LA FINANCIERE DU PATRIMOINE",
    "siren": "880973540",
    "forme_juridique": "Société à responsabilité limitée",
    "adresse": "450 RUE BADEN POWELL",
    "code_postal": "34000",
    "ville": "MONTPELLIER",
    "activites": [],
    "lat": 43.6100821,
    "lng": 3.908255
  },
  {
    "id": 46777,
    "nom": "GRAND SUD IMMOBILIER",
    "siren": "530472422",
    "forme_juridique": "Société à responsabilité limitée",
    "adresse": "257 RUE DE L'INDUSTRIE",
    "code_postal": "34000",
    "ville": "MONTPELLIER",
    "activites": [],
    "lat": 43.5893481,
    "lng": 3.8849834
  },
  {
    "id": 12706,
    "nom": "HERAULT IMMOBILIERE DE GESTION",
    "siren": "379253602",
    "forme_juridique": "Société à responsabilité limitée",
    "adresse": "87 AVENUE DE PALAVAS",
    "code_postal": "34000",
    "ville": "MONTPELLIER",
    "activites": [],
    "lat": 43.5947694,
    "lng": 3.8886948
  },
  {
    "id": 56127,
    "nom": "OLIVIER COSTE IMMOBILIER",
    "siren": "890188071",
    "forme_juridique": "Société à responsabilité limitée",
    "adresse": "15 RUE William et Catherine Booth",
    "code_postal": "34000",
    "ville": "MONTPELLIER",
    "activites": [],
    "lat": 43.5939729,
    "lng": 3.8538163
  },
  {
    "id": 29393,
    "nom": "EFFICIENCE",
    "siren": "524009248",
    "forme_juridique": "Société par actions simplifiée",
    "adresse": "31 RUE SAINT LOUIS",
    "code_postal": "34000",
    "ville": "MONTPELLIER",
    "activites": [],
    "lat": 43.6124066,
    "lng": 3.8664498
  },
  {
    "id": 86990,
    "nom": "LOCAVICE",
    "siren": "932113764",
    "forme_juridique": "Société par actions simplifiée",
    "adresse": "45 RUE Esculape",
    "code_postal": "34090",
    "ville": "MONTPELLIER",
    "activites": [],
    "lat": 43.6223559,
    "lng": 3.8537827
  },
  {
    "id": 47283,
    "nom": "SOCIETE IMMOBILIERE DU LANGUEDOC GESTION",
    "siren": "798947156",
    "forme_juridique": "Société par actions simplifiée",
    "adresse": "8 BOULEVARD LEDRU-ROLLIN",
    "code_postal": "34000",
    "ville": "MONTPELLIER",
    "activites": [],
    "lat": 43.6093167,
    "lng": 3.8725552
  },
  {
    "id": 65097,
    "nom": "TRANSAC PARTNERS",
    "siren": "912409802",
    "forme_juridique": "Société par actions simplifiée",
    "adresse": "90 RUE MARYAM MIRZAKHANI",
    "code_postal": "34000",
    "ville": "MONTPELLIER",
    "activites": [],
    "lat": 43.5956639,
    "lng": 3.9211927
  },
  {
    "id": 82485,
    "nom": "BHEGA",
    "siren": "984744912",
    "forme_juridique": "Société par actions simplifiée",
    "adresse": "73 ALLÉE KLEBER",
    "code_postal": "34000",
    "ville": "MONTPELLIER",
    "activites": [],
    "lat": 43.6035222,
    "lng": 3.8868338
  },
  {
    "id": 83070,
    "nom": "MP",
    "siren": "809561780",
    "forme_juridique": "Société par actions simplifiée",
    "adresse": "73 ALLÉE KLEBER",
    "code_postal": "34000",
    "ville": "MONTPELLIER",
    "activites": [],
    "lat": 43.6035222,
    "lng": 3.8868338
  },
  {
    "id": 50153,
    "nom": "L'EQUIPE IMMO",
    "siren": "851999821",
    "forme_juridique": "Société à responsabilité limitée",
    "adresse": "45 RUE De la Vieille Poste",
    "code_postal": "34000",
    "ville": "MONTPELLIER",
    "activites": [],
    "lat": 43.6102203,
    "lng": 3.8994136
  },
  {
    "id": 83090,
    "nom": "EVOLOC",
    "siren": "987644788",
    "forme_juridique": "Société par actions simplifiée",
    "adresse": "2 RUE Charles Amans",
    "code_postal": "34000",
    "ville": "MONTPELLIER",
    "activites": [],
    "lat": 43.6088936,
    "lng": 3.881019
  },
  {
    "id": 82688,
    "nom": "Non renseigné",
    "siren": "490237807",
    "forme_juridique": "",
    "adresse": "5 RUE LABBE",
    "code_postal": "34000",
    "ville": "MONTPELLIER",
    "activites": [],
    "lat": 43.5996241,
    "lng": 3.8776932
  },
  {
    "id": 43563,
    "nom": "ACTION SUD COMMERCES",
    "siren": "510163280",
    "forme_juridique": "Société à responsabilité limitée",
    "adresse": "113 RUE RAYMOND RECOULY",
    "code_postal": "34070",
    "ville": "MONTPELLIER",
    "activites": [],
    "lat": 43.5756006,
    "lng": 3.8665415
  },
  {
    "id": 83507,
    "nom": "PASSAGE LONJON IMMOBILIER",
    "siren": "928677871",
    "forme_juridique": "Société par actions simplifiée",
    "adresse": "15 PASSAGE LONJON",
    "code_postal": "34000",
    "ville": "MONTPELLIER",
    "activites": [],
    "lat": 43.609084,
    "lng": 3.8797718
  },
  {
    "id": 82727,
    "nom": "GREGORI METGE IMMOBILIER",
    "siren": "924947377",
    "forme_juridique": "Société par actions simplifiée",
    "adresse": "11 RUE DU BASSIN",
    "code_postal": "34000",
    "ville": "MONTPELLIER",
    "activites": [],
    "lat": 43.6134333,
    "lng": 3.8284011
  },
  {
    "id": 28351,
    "nom": "OTI SARL OFFICE DE TRANSACTIONS IMMOBILIERES",
    "siren": "310057229",
    "forme_juridique": "Société à responsabilité limitée",
    "adresse": "4 RUE RONDELET",
    "code_postal": "34000",
    "ville": "MONTPELLIER",
    "activites": [],
    "lat": 43.60437,
    "lng": 3.8747394
  },
  {
    "id": 66880,
    "nom": "Bricks Property Management ",
    "siren": "920924537",
    "forme_juridique": "Société par actions simplifiée",
    "adresse": "246 rue de l'Espérou",
    "code_postal": "34090",
    "ville": "MONTPELLIER",
    "activites": [],
    "lat": 43.636878,
    "lng": 3.8557509
  },
  {
    "id": 57583,
    "nom": "MCImmobilier 34",
    "siren": "890060619",
    "forme_juridique": "Société à responsabilité limitée",
    "adresse": "7 RUE Vézian",
    "code_postal": "34000",
    "ville": "MONTPELLIER",
    "activites": [],
    "lat": 43.6124504,
    "lng": 3.8655815
  },
  {
    "id": 54379,
    "nom": "NOVENTY IMMOBILIER ",
    "siren": "883065377",
    "forme_juridique": "Société par actions simplifiée",
    "adresse": "1 RUE PARLIER",
    "code_postal": "34000",
    "ville": "MONTPELLIER",
    "activites": [],
    "lat": 43.6054251,
    "lng": 3.8772956
  },
  {
    "id": 77702,
    "nom": "AVANT PREMIERE",
    "siren": "980733885",
    "forme_juridique": "Société par actions simplifiée",
    "adresse": "770 RUE ALFRED NOBEL",
    "code_postal": "34000",
    "ville": "MONTPELLIER",
    "activites": [],
    "lat": 43.6095096,
    "lng": 3.9120961
  },
  {
    "id": 76785,
    "nom": "Non renseigné",
    "siren": "535046841",
    "forme_juridique": "",
    "adresse": "56 RUE TOUR GAYRAUD",
    "code_postal": "34070",
    "ville": "MONTPELLIER",
    "activites": [],
    "lat": 43.6079599,
    "lng": 3.8615321
  },
  {
    "id": 39978,
    "nom": "ES IMMOBILIER",
    "siren": "523191724",
    "forme_juridique": "Société par actions simplifiée",
    "adresse": "185 RUE Léon Blum",
    "code_postal": "34000",
    "ville": "MONTPELLIER",
    "activites": [],
    "lat": 43.6086802,
    "lng": 3.8907499
  },
  {
    "id": 9148,
    "nom": "AGI IMMOBILIER",
    "siren": "424523066",
    "forme_juridique": "Société par actions simplifiée",
    "adresse": "467 RUE DE LA ROQUETURIERE",
    "code_postal": "34090",
    "ville": "MONTPELLIER",
    "activites": [],
    "lat": 43.6298192,
    "lng": 3.8854009
  },
  {
    "id": 123745,
    "nom": "LASCABES IMMOBILIER",
    "siren": "994590081",
    "forme_juridique": "Société par actions simplifiée",
    "adresse": "33 AVENUE Saint- charles",
    "code_postal": "34090",
    "ville": "MONTPELLIER",
    "activites": [],
    "lat": 43.6169076,
    "lng": 3.8726932
  },
  {
    "id": 109821,
    "nom": "KALELITHOS",
    "siren": "492876958",
    "forme_juridique": "Société par actions simplifiée",
    "adresse": "355 RUE VENDEMIAIRE",
    "code_postal": "34000",
    "ville": "MONTPELLIER",
    "activites": [],
    "lat": 43.6022035,
    "lng": 3.8989867
  },
  {
    "id": 110161,
    "nom": "9COM",
    "siren": "533694873",
    "forme_juridique": "Société par actions simplifiée",
    "adresse": "31 RUE Saint Louis",
    "code_postal": "34000",
    "ville": "MONTPELLIER",
    "activites": [],
    "lat": 43.6124066,
    "lng": 3.8664498
  },
  {
    "id": 103804,
    "nom": "RFA",
    "siren": "941158123",
    "forme_juridique": "Société par actions simplifiée",
    "adresse": "1710 AVENUE de la justice de Castelnau",
    "code_postal": "34090",
    "ville": "MONTPELLIER",
    "activites": [],
    "lat": 43.6265637,
    "lng": 3.8899619
  },
  {
    "id": 2343,
    "nom": "A IMMOBILIER",
    "siren": "339571457",
    "forme_juridique": "Société par actions simplifiée",
    "adresse": "6 RUE SUBLEYRAS",
    "code_postal": "34000",
    "ville": "MONTPELLIER",
    "activites": [],
    "lat": 43.610839,
    "lng": 3.8662993
  },
  {
    "id": 7538,
    "nom": "ABISENS IMMOBILIER",
    "siren": "522772987",
    "forme_juridique": "Société à responsabilité limitée",
    "adresse": "1465 AVENUE DE MAURIN",
    "code_postal": "34070",
    "ville": "MONTPELLIER",
    "activites": [],
    "lat": 43.5918139,
    "lng": 3.8738914
  },
  {
    "id": 67789,
    "nom": "QORIDOR",
    "siren": "948209598",
    "forme_juridique": "Société par actions simplifiée",
    "adresse": "321 RUE de l'industrie",
    "code_postal": "34070",
    "ville": "MONTPELLIER",
    "activites": [],
    "lat": 43.5876049,
    "lng": 3.8838502
  },
  {
    "id": 9604,
    "nom": "FLASH IMMOBILIER",
    "siren": "329626519",
    "forme_juridique": "Société par actions simplifiée",
    "adresse": "185 RUE LEON BLUM",
    "code_postal": "34000",
    "ville": "MONTPELLIER",
    "activites": [],
    "lat": 43.6086802,
    "lng": 3.8907499
  },
  {
    "id": 9685,
    "nom": "OPUS INVESTISSEMENT",
    "siren": "818501504",
    "forme_juridique": "Société par actions simplifiée",
    "adresse": "129 RUE Andy Warhol",
    "code_postal": "34000",
    "ville": "MONTPELLIER",
    "activites": [],
    "lat": 43.6028552,
    "lng": 3.9060772
  },
  {
    "id": 10086,
    "nom": "IMMOBILIERE DEJEAN PEPIN",
    "siren": "452843436",
    "forme_juridique": "Société à responsabilité limitée",
    "adresse": "9 PLACE CHABANEAU",
    "code_postal": "34000",
    "ville": "MONTPELLIER",
    "activites": [],
    "lat": 43.611432,
    "lng": 3.876207
  },
  {
    "id": 10370,
    "nom": "ORCI",
    "siren": "454079286",
    "forme_juridique": "Société à responsabilité limitée",
    "adresse": "70 IMPASSE CHARLES DEJEAN",
    "code_postal": "34090",
    "ville": "MONTPELLIER",
    "activites": [],
    "lat": 43.63344,
    "lng": 3.8765308
  },
  {
    "id": 10869,
    "nom": "A 2000",
    "siren": "431822113",
    "forme_juridique": "Société à responsabilité limitée",
    "adresse": "3 PLACE DES BEAUX ARTS",
    "code_postal": "34000",
    "ville": "MONTPELLIER",
    "activites": [],
    "lat": 43.6160059,
    "lng": 3.8810544
  },
  {
    "id": 68006,
    "nom": "Centre d'affaires de l'artisan",
    "siren": "899535157",
    "forme_juridique": "Société par actions simplifiée",
    "adresse": "154 RUE BERNARD GIRAUDEAU",
    "code_postal": "34080",
    "ville": "MONTPELLIER",
    "activites": [],
    "lat": 43.6230089,
    "lng": 3.8226434
  },
  {
    "id": 68066,
    "nom": "ACRC IMMOBILIER",
    "siren": "907848808",
    "forme_juridique": "Société par actions simplifiée",
    "adresse": "160 AVENUE de la Réglisse",
    "code_postal": "34070",
    "ville": "MONTPELLIER",
    "activites": [],
    "lat": 43.5822286,
    "lng": 3.8597811
  },
  {
    "id": 53341,
    "nom": "FI PATRIMOINE",
    "siren": "881640981",
    "forme_juridique": "Société à responsabilité limitée",
    "adresse": "1 RUE de Verdun",
    "code_postal": "34000",
    "ville": "MONTPELLIER",
    "activites": [],
    "lat": 43.6082423,
    "lng": 3.8800137
  },
  {
    "id": 15594,
    "nom": "AGENCE AQUILA ",
    "siren": "410441539",
    "forme_juridique": "Société à responsabilité limitée",
    "adresse": "6 RUE de Substantion",
    "code_postal": "34000",
    "ville": "MONTPELLIER",
    "activites": [],
    "lat": 43.6159931,
    "lng": 3.8826597
  },
  {
    "id": 17401,
    "nom": "BEC IMMOBILIER",
    "siren": "319267894",
    "forme_juridique": "Société à responsabilité limitée",
    "adresse": "12 RUE PALADILHE",
    "code_postal": "34000",
    "ville": "MONTPELLIER",
    "activites": [],
    "lat": 43.6119753,
    "lng": 3.8657268
  },
  {
    "id": 17642,
    "nom": "ACM HABITAT (OFFICE PUBLIC DE L'HABITAT DE MONTPELLIER MEDITERRANEE METROPOLE)",
    "siren": "351808977",
    "forme_juridique": "Etablissement public à caractère industriel et commercial",
    "adresse": "407 AVENUE DU PROFESSEUR ETIENNE ANTONELLI",
    "code_postal": "34000",
    "ville": "MONTPELLIER",
    "activites": [],
    "lat": 43.6000201,
    "lng": 3.895306
  },
  {
    "id": 20455,
    "nom": "MONTPELLIERAINE DE COPROPRIETE  \"MDC\"",
    "siren": "822738191",
    "forme_juridique": "Société à responsabilité limitée",
    "adresse": "4 RUE Rondelet ",
    "code_postal": "34000",
    "ville": "MONTPELLIER",
    "activites": [],
    "lat": 43.60437,
    "lng": 3.8747394
  },
  {
    "id": 20523,
    "nom": "AGENCE DE LA COMEDIE",
    "siren": "423612423",
    "forme_juridique": "Société à responsabilité limitée",
    "adresse": "8 PLACE DE LA COMEDIE",
    "code_postal": "34000",
    "ville": "MONTPELLIER",
    "activites": [],
    "lat": 43.6089091,
    "lng": 3.8797886
  },
  {
    "id": 21204,
    "nom": "DP IMMO",
    "siren": "802102798",
    "forme_juridique": "Société à responsabilité limitée",
    "adresse": "45 RUE DE LA VIEILLE POSTE",
    "code_postal": "34000",
    "ville": "MONTPELLIER",
    "activites": [],
    "lat": 43.6102203,
    "lng": 3.8994136
  },
  {
    "id": 9309,
    "nom": "GRANIE IMMOBILIER",
    "siren": "317751311",
    "forme_juridique": "Société par actions simplifiée",
    "adresse": "1035 AVENUE DU PERE SOULAS",
    "code_postal": "34090",
    "ville": "MONTPELLIER",
    "activites": [],
    "lat": 43.6212617,
    "lng": 3.8561131
  },
  {
    "id": 28220,
    "nom": "MAISON B.",
    "siren": "508662996",
    "forme_juridique": "Société à responsabilité limitée",
    "adresse": "959 RUE Bugarel",
    "code_postal": "34070",
    "ville": "MONTPELLIER",
    "activites": [],
    "lat": 43.5920791,
    "lng": 3.8512763
  },
  {
    "id": 34116,
    "nom": "C-GIMMO",
    "siren": "531820983",
    "forme_juridique": "Société à responsabilité limitée",
    "adresse": "543 RUE DE LA CASTELLE",
    "code_postal": "34070",
    "ville": "MONTPELLIER",
    "activites": [],
    "lat": 43.582391,
    "lng": 3.8695623
  },
  {
    "id": 34331,
    "nom": "Non renseigné",
    "siren": "524994985",
    "forme_juridique": "",
    "adresse": "4 PASSAGE LONJON",
    "code_postal": "34000",
    "ville": "MONTPELLIER",
    "activites": [],
    "lat": 43.6090692,
    "lng": 3.879475
  },
  {
    "id": 34340,
    "nom": "TRANSACTION ENGAGEMENT RENOUVEAU, par abréviation TER",
    "siren": "833173065",
    "forme_juridique": "Société à responsabilité limitée",
    "adresse": "628 RUE De Centrayrargues",
    "code_postal": "34000",
    "ville": "MONTPELLIER",
    "activites": [],
    "lat": 43.5954038,
    "lng": 3.8877939
  },
  {
    "id": 37428,
    "nom": "IMMO MAT & SEB",
    "siren": "528557614",
    "forme_juridique": "Société à responsabilité limitée",
    "adresse": "1 RUE Saint Paul",
    "code_postal": "34000",
    "ville": "MONTPELLIER",
    "activites": [],
    "lat": 43.6087349,
    "lng": 3.8756474
  },
  {
    "id": 37909,
    "nom": "CAPRIM (CABINET D'ADMINISTRATION DE PATRIMOINES IMMOBILIERS)",
    "siren": "418763975",
    "forme_juridique": "Société par actions simplifiée",
    "adresse": "1 PLACE Paul Bec",
    "code_postal": "34000",
    "ville": "MONTPELLIER",
    "activites": [],
    "lat": 43.6079581,
    "lng": 3.8864149
  },
  {
    "id": 39231,
    "nom": "INVEST MH",
    "siren": "482394046",
    "forme_juridique": "Société à responsabilité limitée",
    "adresse": "1025 AVENUE HENRI BECQUEREL ",
    "code_postal": "34000",
    "ville": "MONTPELLIER",
    "activites": [],
    "lat": 43.6089644,
    "lng": 3.9155257
  },
  {
    "id": 40248,
    "nom": "CONSEIL PATRIMONIAL IMMOBILIER",
    "siren": "840243604",
    "forme_juridique": "Société à responsabilité limitée",
    "adresse": "55 AVENUE De la Justice",
    "code_postal": "34000",
    "ville": "MONTPELLIER",
    "activites": [],
    "lat": 43.627091,
    "lng": 3.8704798
  },
  {
    "id": 45286,
    "nom": "ARCHE EDITION",
    "siren": "392425450",
    "forme_juridique": "Société à responsabilité limitée",
    "adresse": "9 BOULEVARD SARRAIL",
    "code_postal": "34000",
    "ville": "MONTPELLIER",
    "activites": [],
    "lat": 43.6095215,
    "lng": 3.8802302
  },
  {
    "id": 46406,
    "nom": "KOESIA",
    "siren": "841057284",
    "forme_juridique": "Société par actions simplifiée",
    "adresse": "520 AVENUE des Prés d'Arènes",
    "code_postal": "34070",
    "ville": "MONTPELLIER",
    "activites": [],
    "lat": 43.5916659,
    "lng": 3.8811172
  },
  {
    "id": 22804,
    "nom": "MATIM",
    "siren": "823715727",
    "forme_juridique": "Société à responsabilité limitée",
    "adresse": "18 RUE DE RETHEL",
    "code_postal": "34000",
    "ville": "MONTPELLIER",
    "activites": [],
    "lat": 43.6005626,
    "lng": 3.8830243
  },
  {
    "id": 25894,
    "nom": "EXCEL HABITAT",
    "siren": "820123271",
    "forme_juridique": "Société par actions simplifiée",
    "adresse": "3 RUE LOUIS GASTON DE SEGUR",
    "code_postal": "34000",
    "ville": "MONTPELLIER",
    "activites": [],
    "lat": 43.6134489,
    "lng": 3.8619359
  },
  {
    "id": 53829,
    "nom": "OSTALIMMO",
    "siren": "853922045",
    "forme_juridique": "Société par actions simplifiée",
    "adresse": "21 BOULEVARD RENOUVIER",
    "code_postal": "34000",
    "ville": "MONTPELLIER",
    "activites": [],
    "lat": 43.6038692,
    "lng": 3.8678268
  },
  {
    "id": 64138,
    "nom": "NGT",
    "siren": "904526282",
    "forme_juridique": "Société à responsabilité limitée",
    "adresse": "530 AVENUE DU MONDIAL DE RUGBY 2007",
    "code_postal": "34070",
    "ville": "MONTPELLIER",
    "activites": [],
    "lat": 43.5877897,
    "lng": 3.8533939
  },
  {
    "id": 28907,
    "nom": "AGENCE DEVIER IMMOBILIER",
    "siren": "349576223",
    "forme_juridique": "Société à responsabilité limitée",
    "adresse": "1 RUE DU CLOS RENE",
    "code_postal": "34000",
    "ville": "MONTPELLIER",
    "activites": [],
    "lat": 43.6067673,
    "lng": 3.8805631
  },
  {
    "id": 56108,
    "nom": "IMMONEUF HERAULT",
    "siren": "889412987",
    "forme_juridique": "Société par actions simplifiée",
    "adresse": "9 RUE IRENE JOLIOT CURIE",
    "code_postal": "34070",
    "ville": "MONTPELLIER",
    "activites": [],
    "lat": 43.6023709,
    "lng": 3.8755795
  },
  {
    "id": 56274,
    "nom": "LES BEAUX ARTS",
    "siren": "412252314",
    "forme_juridique": "Société à responsabilité limitée",
    "adresse": "17 PLACE EMILE COMBES",
    "code_postal": "34000",
    "ville": "MONTPELLIER",
    "activites": [],
    "lat": 43.6163663,
    "lng": 3.8802533
  },
  {
    "id": 56688,
    "nom": "SJ CHABANEAU ",
    "siren": "891509846",
    "forme_juridique": "Société à responsabilité limitée",
    "adresse": "7 PLACE CHABANEAU",
    "code_postal": "34000",
    "ville": "MONTPELLIER",
    "activites": [],
    "lat": 43.6113755,
    "lng": 3.8760139
  },
  {
    "id": 57264,
    "nom": "PROGEST",
    "siren": "483639266",
    "forme_juridique": "Société à responsabilité limitée",
    "adresse": "96 AVENUE DU PONT JUVENAL",
    "code_postal": "34000",
    "ville": "MONTPELLIER",
    "activites": [],
    "lat": 43.6054865,
    "lng": 3.8929304
  },
  {
    "id": 57597,
    "nom": "CONSEIL IMMOBILIER OCCITANIE",
    "siren": "893914879",
    "forme_juridique": "Société par actions simplifiée",
    "adresse": "77 RUE DE RAGUSE",
    "code_postal": "34000",
    "ville": "MONTPELLIER",
    "activites": [],
    "lat": 43.6009799,
    "lng": 3.9002665
  },
  {
    "id": 32963,
    "nom": "BAZILLE",
    "siren": "799180898",
    "forme_juridique": "Société par actions simplifiée",
    "adresse": "19 RUE MARIOGE",
    "code_postal": "34000",
    "ville": "MONTPELLIER",
    "activites": [],
    "lat": 43.6112376,
    "lng": 3.8656542
  },
  {
    "id": 33806,
    "nom": "LJP IMMOBILIER",
    "siren": "837706092",
    "forme_juridique": "Société à responsabilité limitée",
    "adresse": "453 RUE DES BRUSSES",
    "code_postal": "34090",
    "ville": "MONTPELLIER",
    "activites": [],
    "lat": 43.6391097,
    "lng": 3.8542664
  },
  {
    "id": 57869,
    "nom": "FD IMMOBILIER",
    "siren": "890149552",
    "forme_juridique": "Société à responsabilité limitée",
    "adresse": "263 RUE DE LA COMBE DE BONESTA",
    "code_postal": "34090",
    "ville": "MONTPELLIER",
    "activites": [],
    "lat": 43.6328722,
    "lng": 3.8803603
  },
  {
    "id": 58190,
    "nom": "NAOS DEVELOPPEMENT",
    "siren": "883709123",
    "forme_juridique": "Société à responsabilité limitée",
    "adresse": "1 RUE PHILIPPY",
    "code_postal": "34000",
    "ville": "MONTPELLIER",
    "activites": [],
    "lat": 43.6102261,
    "lng": 3.8746543
  },
  {
    "id": 36258,
    "nom": "M&M IMMO",
    "siren": "791590508",
    "forme_juridique": "Société à responsabilité limitée",
    "adresse": "55 AVENUE GEORGES CLEMENCEAU",
    "code_postal": "34000",
    "ville": "MONTPELLIER",
    "activites": [],
    "lat": 43.6015937,
    "lng": 3.8690042
  },
  {
    "id": 43551,
    "nom": "C2A 21",
    "siren": "841323280",
    "forme_juridique": "Société à responsabilité limitée",
    "adresse": "55 AVENUE DE LA JUSTICE DE CASTELNAU",
    "code_postal": "34090",
    "ville": "MONTPELLIER",
    "activites": [],
    "lat": 43.627091,
    "lng": 3.8704798
  },
  {
    "id": 38158,
    "nom": "C CONSEILS",
    "siren": "520137852",
    "forme_juridique": "Société à responsabilité limitée",
    "adresse": "1028 AVENUE de la Pompignane",
    "code_postal": "34000",
    "ville": "MONTPELLIER",
    "activites": [],
    "lat": 43.6152325,
    "lng": 3.8980007
  },
  {
    "id": 46877,
    "nom": "M.A.R. PERPECTIVES",
    "siren": "480140748",
    "forme_juridique": "Société à responsabilité limitée",
    "adresse": "31 RUE ERNEST MICHEL",
    "code_postal": "34000",
    "ville": "MONTPELLIER",
    "activites": [],
    "lat": 43.6001491,
    "lng": 3.8735311
  },
  {
    "id": 37802,
    "nom": "BAILIMMO",
    "siren": "529722027",
    "forme_juridique": "Société à responsabilité limitée",
    "adresse": "9 AVENUE GEORGES CLEMENCEAU",
    "code_postal": "34000",
    "ville": "MONTPELLIER",
    "activites": [],
    "lat": 43.6045126,
    "lng": 3.8739301
  },
  {
    "id": 65427,
    "nom": "SUNEX IMMOBILIER",
    "siren": "914488077",
    "forme_juridique": "Société par actions simplifiée",
    "adresse": "146 RUE JOE DASSIN",
    "code_postal": "34080",
    "ville": "MONTPELLIER",
    "activites": [],
    "lat": 43.6209576,
    "lng": 3.8213471
  },
  {
    "id": 41358,
    "nom": "COLOMBET IMMOBILIER",
    "siren": "529963712",
    "forme_juridique": "Société à responsabilité limitée",
    "adresse": "9 BOULEVARD SARRAIL",
    "code_postal": "34000",
    "ville": "MONTPELLIER",
    "activites": [],
    "lat": 43.6095215,
    "lng": 3.8802302
  },
  {
    "id": 65950,
    "nom": "Sortie Realty SAS",
    "siren": "912695889",
    "forme_juridique": "Société par actions simplifiée",
    "adresse": "6 BOULEVARD Berthelot",
    "code_postal": "34000",
    "ville": "MONTPELLIER",
    "activites": [],
    "lat": 43.6007664,
    "lng": 3.8701857
  },
  {
    "id": 60604,
    "nom": "ASPECT IMMOBILIER",
    "siren": "902553288",
    "forme_juridique": "Société par actions simplifiée",
    "adresse": "30 PLACE GEORGES FRECHE",
    "code_postal": "34070",
    "ville": "MONTPELLIER",
    "activites": [],
    "lat": 43.5988795,
    "lng": 3.8960962
  },
  {
    "id": 19807,
    "nom": "EVOC IMMOBILIER",
    "siren": "822470837",
    "forme_juridique": "Société par actions simplifiée",
    "adresse": "2 RUE Charles Amans",
    "code_postal": "34000",
    "ville": "MONTPELLIER",
    "activites": [],
    "lat": 43.6088936,
    "lng": 3.881019
  },
  {
    "id": 50904,
    "nom": "PRADES-MILIAN  CAPITAL",
    "siren": "841536477",
    "forme_juridique": "Société par actions simplifiée",
    "adresse": "32 RUE DES ECUYERS",
    "code_postal": "34070",
    "ville": "MONTPELLIER",
    "activites": [],
    "lat": 43.5942842,
    "lng": 3.8511834
  },
  {
    "id": 21522,
    "nom": "CABINET HUGON REDON",
    "siren": "404318503",
    "forme_juridique": "Société à responsabilité limitée",
    "adresse": "500 RUE LEON BLUM",
    "code_postal": "34000",
    "ville": "MONTPELLIER",
    "activites": [],
    "lat": 43.606015,
    "lng": 3.8895267
  },
  {
    "id": 61177,
    "nom": "DPG IMMO",
    "siren": "897699120",
    "forme_juridique": "Société par actions simplifiée",
    "adresse": "45 RUE DE LA VIEILLE POSTE",
    "code_postal": "34000",
    "ville": "MONTPELLIER",
    "activites": [],
    "lat": 43.6102203,
    "lng": 3.8994136
  },
  {
    "id": 61209,
    "nom": "CANOURGUE IMMOBILIER",
    "siren": "392738621",
    "forme_juridique": "Société à responsabilité limitée",
    "adresse": "1 PLACE DE LA CANOURGUE",
    "code_postal": "34000",
    "ville": "MONTPELLIER",
    "activites": [],
    "lat": 43.6115568,
    "lng": 3.8740803
  },
  {
    "id": 1916,
    "nom": "D.P.I.P.",
    "siren": "432050409",
    "forme_juridique": "Société par actions simplifiée",
    "adresse": "491 RUE BADEN POWELL",
    "code_postal": "34000",
    "ville": "MONTPELLIER",
    "activites": [],
    "lat": 43.609861,
    "lng": 3.9089221
  },
  {
    "id": 62149,
    "nom": "ISP GROUP",
    "siren": "904237575",
    "forme_juridique": "Société par actions simplifiée",
    "adresse": "1400 RUE de la Castelle",
    "code_postal": "34070",
    "ville": "MONTPELLIER",
    "activites": [],
    "lat": 43.585809,
    "lng": 3.8704653
  },
  {
    "id": 67126,
    "nom": "ASRL",
    "siren": "919081745",
    "forme_juridique": "Société à responsabilité limitée",
    "adresse": "1910 AVENUE DE TOULOUSE",
    "code_postal": "34070",
    "ville": "MONTPELLIER",
    "activites": [],
    "lat": 43.5875625,
    "lng": 3.8535214
  },
  {
    "id": 8274,
    "nom": "PEYROU MULTI SERVICES",
    "siren": "460800568",
    "forme_juridique": "Société à responsabilité limitée",
    "adresse": "573 AVENUE DU PERE SOULAS",
    "code_postal": "34000",
    "ville": "MONTPELLIER",
    "activites": [],
    "lat": 43.6192235,
    "lng": 3.8612282
  },
  {
    "id": 6411,
    "nom": "CITYA ARENA",
    "siren": "812500528",
    "forme_juridique": "Société à responsabilité limitée",
    "adresse": "501 RUE DENIS PAPIN",
    "code_postal": "34000",
    "ville": "MONTPELLIER",
    "activites": [],
    "lat": 43.6102513,
    "lng": 3.9080139
  },
  {
    "id": 69842,
    "nom": "DIGITAL DIFFUSION",
    "siren": "819380817",
    "forme_juridique": "Société par actions simplifiée",
    "adresse": "20 RUE DES BALANCES",
    "code_postal": "34000",
    "ville": "MONTPELLIER",
    "activites": [],
    "lat": 43.608389,
    "lng": 3.8734894
  },
  {
    "id": 69913,
    "nom": "VILLANOVA REALTY",
    "siren": "952664233",
    "forme_juridique": "Société à responsabilité limitée",
    "adresse": "300 AVENUE GERMAINE TILLION",
    "code_postal": "34070",
    "ville": "MONTPELLIER",
    "activites": [],
    "lat": 43.5965686,
    "lng": 3.8959636
  },
  {
    "id": 69906,
    "nom": "AGENCE DES FACULTES",
    "siren": "814296125",
    "forme_juridique": "Société à responsabilité limitée",
    "adresse": "455 ROUTE DE MENDE",
    "code_postal": "34090",
    "ville": "MONTPELLIER",
    "activites": [],
    "lat": 43.6266341,
    "lng": 3.8698289
  },
  {
    "id": 55898,
    "nom": "OGF",
    "siren": "881768832",
    "forme_juridique": "Société par actions simplifiée",
    "adresse": "10 RUE DU PALAIS DES GUILHEM",
    "code_postal": "34000",
    "ville": "MONTPELLIER",
    "activites": [],
    "lat": 43.6113656,
    "lng": 3.8746039
  },
  {
    "id": 17579,
    "nom": "AGENCE LE SARRAIL",
    "siren": "323139352",
    "forme_juridique": "Société à responsabilité limitée",
    "adresse": "185 RUE LEON BLUM",
    "code_postal": "34000",
    "ville": "MONTPELLIER",
    "activites": [],
    "lat": 43.6086802,
    "lng": 3.8907499
  },
  {
    "id": 70359,
    "nom": "PIERRE ET PATRIMOINE",
    "siren": "979192150",
    "forme_juridique": "Société par actions simplifiée",
    "adresse": "8 RUE MARIOGE",
    "code_postal": "34000",
    "ville": "MONTPELLIER",
    "activites": [],
    "lat": 43.610705,
    "lng": 3.8656738
  },
  {
    "id": 88512,
    "nom": "MEDI TERRA ESTATE",
    "siren": "981555899",
    "forme_juridique": "Société par actions simplifiée",
    "adresse": "70 RUE DES SAUGES",
    "code_postal": "34070",
    "ville": "MONTPELLIER",
    "activites": [],
    "lat": 43.5942863,
    "lng": 3.8816687
  },
  {
    "id": 81785,
    "nom": "MAISON ORSSAUD",
    "siren": "500759543",
    "forme_juridique": "Société par actions simplifiée",
    "adresse": "4 BOULEVARD LEDRU ROLLIN",
    "code_postal": "34000",
    "ville": "MONTPELLIER",
    "activites": [],
    "lat": 43.6097604,
    "lng": 3.8722979
  },
  {
    "id": 9605,
    "nom": "MEDITERRANEE IMMOBILIER",
    "siren": "378693949",
    "forme_juridique": "Société par actions simplifiée",
    "adresse": "254 RUE MICHEL TEULE",
    "code_postal": "34080",
    "ville": "MONTPELLIER",
    "activites": [],
    "lat": 43.6248936,
    "lng": 3.8389446
  },
  {
    "id": 43660,
    "nom": "ALTAMURA IMMOBILIER",
    "siren": "788646271",
    "forme_juridique": "Société à responsabilité limitée",
    "adresse": "19 PASSAGE SOIXANTE QUINZE",
    "code_postal": "34070",
    "ville": "MONTPELLIER",
    "activites": [],
    "lat": 43.6006772,
    "lng": 3.8650633
  },
  {
    "id": 56754,
    "nom": "NIERI IMMOBILIER",
    "siren": "891896417",
    "forme_juridique": "Société par actions simplifiée",
    "adresse": "38 RUE YEHUDI MENUHIN",
    "code_postal": "34000",
    "ville": "MONTPELLIER",
    "activites": [],
    "lat": 43.6170784,
    "lng": 3.884736
  },
  {
    "id": 82546,
    "nom": "PAVLOVA IMMOBILIER",
    "siren": "987642048",
    "forme_juridique": "Société par actions simplifiée",
    "adresse": "48 RUE ANNA PAVLOVA",
    "code_postal": "34000",
    "ville": "MONTPELLIER",
    "activites": [],
    "lat": 43.596668,
    "lng": 3.9053506
  },
  {
    "id": 123514,
    "nom": "DT IMMO",
    "siren": "994093979",
    "forme_juridique": "Société par actions simplifiée",
    "adresse": "45 RUE DE LA VIEILLE POSTE",
    "code_postal": "34000",
    "ville": "MONTPELLIER",
    "activites": [],
    "lat": 43.6102203,
    "lng": 3.8994136
  },
  {
    "id": 116647,
    "nom": "EASILYRENT",
    "siren": "989863840",
    "forme_juridique": "Société à responsabilité limitée",
    "adresse": "381 AVENUE DU MAS ARGELLIERS",
    "code_postal": "34070",
    "ville": "MONTPELLIER",
    "activites": [],
    "lat": 43.5877967,
    "lng": 3.8902398
  },
  {
    "id": 116649,
    "nom": "HABITEA",
    "siren": "990203234",
    "forme_juridique": "Société à responsabilité limitée",
    "adresse": "612 AVENUE D'OCCITANIE",
    "code_postal": "34090",
    "ville": "MONTPELLIER",
    "activites": [],
    "lat": 43.6348592,
    "lng": 3.8570334
  },
  {
    "id": 12360,
    "nom": "CENTRE DE TRANSACTIONS IMMOBILIERES",
    "siren": "428893663",
    "forme_juridique": "Société à responsabilité limitée",
    "adresse": "53 AVENUE DE TOULOUSE",
    "code_postal": "34070",
    "ville": "MONTPELLIER",
    "activites": [],
    "lat": 43.5979963,
    "lng": 3.864972
  },
  {
    "id": 83631,
    "nom": "PR'IMMO",
    "siren": "439699950",
    "forme_juridique": "Société à responsabilité limitée",
    "adresse": "73 ALLÉE KLEBER",
    "code_postal": "34000",
    "ville": "MONTPELLIER",
    "activites": [],
    "lat": 43.6035222,
    "lng": 3.8868338
  },
  {
    "id": 83738,
    "nom": "STELLA GESTION PRIVEE ",
    "siren": "928484898",
    "forme_juridique": "Société à responsabilité limitée",
    "adresse": "418 RUE du Mas de Verchant",
    "code_postal": "34000",
    "ville": "MONTPELLIER",
    "activites": [],
    "lat": 43.6198635,
    "lng": 3.9133271
  },
  {
    "id": 32974,
    "nom": "PROJETLOCATIF",
    "siren": "834600595",
    "forme_juridique": "Société par actions simplifiée",
    "adresse": "1025 AVENUE HENRI BECQUEREL",
    "code_postal": "34000",
    "ville": "MONTPELLIER",
    "activites": [],
    "lat": 43.6089644,
    "lng": 3.9155257
  },
  {
    "id": 123791,
    "nom": "Non renseigné",
    "siren": "993906882",
    "forme_juridique": "",
    "adresse": "150 RUE LUIS BARRAGAN",
    "code_postal": "34000",
    "ville": "MONTPELLIER",
    "activites": [],
    "lat": 43.6173063,
    "lng": 3.8985061
  },
  {
    "id": 83358,
    "nom": "ONYRISM",
    "siren": "929270908",
    "forme_juridique": "Société à responsabilité limitée",
    "adresse": "107 RUE Sabine et Miron Zlatin ",
    "code_postal": "34000",
    "ville": "MONTPELLIER",
    "activites": [],
    "lat": 43.5971105,
    "lng": 3.9028541
  },
  {
    "id": 20181,
    "nom": "HELENIS PATRIMOINE",
    "siren": "531105369",
    "forme_juridique": "Société à responsabilité limitée",
    "adresse": "740 AVENUE DES APOTHICAIRES",
    "code_postal": "34090",
    "ville": "MONTPELLIER",
    "activites": [],
    "lat": 43.6418694,
    "lng": 3.8350662
  },
  {
    "id": 35736,
    "nom": "VALORICIEL",
    "siren": "518301973",
    "forme_juridique": "Société par actions simplifiée",
    "adresse": "137 RUE CLAUDE BALBASTRE",
    "code_postal": "34070",
    "ville": "MONTPELLIER",
    "activites": [],
    "lat": 43.57392,
    "lng": 3.8616768
  },
  {
    "id": 16465,
    "nom": "DC IMMOBILIER",
    "siren": "451996847",
    "forme_juridique": "Société par actions simplifiée",
    "adresse": "22 RUE DE VERDUN",
    "code_postal": "34000",
    "ville": "MONTPELLIER",
    "activites": [],
    "lat": 43.6060537,
    "lng": 3.8818744
  },
  {
    "id": 70637,
    "nom": "ADJUST PATRIMOINE",
    "siren": "979214442",
    "forme_juridique": "Société par actions simplifiée",
    "adresse": "6 BOULEVARD Berthelot",
    "code_postal": "34000",
    "ville": "MONTPELLIER",
    "activites": [],
    "lat": 43.6007664,
    "lng": 3.8701857
  },
  {
    "id": 73633,
    "nom": "SASU SG2L",
    "siren": "980570543",
    "forme_juridique": "Société par actions simplifiée",
    "adresse": "73 ALLÉE Kléber",
    "code_postal": "34000",
    "ville": "MONTPELLIER",
    "activites": [],
    "lat": 43.6035222,
    "lng": 3.8868338
  },
  {
    "id": 44433,
    "nom": "ARTEMIO",
    "siren": "502774276",
    "forme_juridique": "Société par actions simplifiée",
    "adresse": "168 RUE Du Professeur Antonin Balmes",
    "code_postal": "34070",
    "ville": "MONTPELLIER",
    "activites": [],
    "lat": 43.5800051,
    "lng": 3.8759813
  },
  {
    "id": 75646,
    "nom": "Agence AW",
    "siren": "981365752",
    "forme_juridique": "Société par actions simplifiée",
    "adresse": "73 ALLÉE Kléber",
    "code_postal": "34000",
    "ville": "MONTPELLIER",
    "activites": [],
    "lat": 43.6035222,
    "lng": 3.8868338
  },
  {
    "id": 117161,
    "nom": "MA RENTA",
    "siren": "940768401",
    "forme_juridique": "Société par actions simplifiée",
    "adresse": "259 RUE de la piscine",
    "code_postal": "34080",
    "ville": "MONTPELLIER",
    "activites": [],
    "lat": 43.6113256,
    "lng": 3.8361856
  },
  {
    "id": 108146,
    "nom": "Ouréa",
    "siren": "941819153",
    "forme_juridique": "Société par actions simplifiée",
    "adresse": "23 RUE Mareschal",
    "code_postal": "34000",
    "ville": "MONTPELLIER",
    "activites": [],
    "lat": 43.6085119,
    "lng": 3.8825537
  },
  {
    "id": 123765,
    "nom": "AFR HABITAT EN LANGUEDOC ",
    "siren": "989816343",
    "forme_juridique": "Association",
    "adresse": "133 RUE OLOF PALME",
    "code_postal": "34070",
    "ville": "MONTPELLIER",
    "activites": [],
    "lat": 43.5796719,
    "lng": 3.8762098
  },
  {
    "id": 67376,
    "nom": "PATRIMONIAL-CONSEIL",
    "siren": "524320405",
    "forme_juridique": "Société à responsabilité limitée",
    "adresse": "12 RUE VIVALDI",
    "code_postal": "34070",
    "ville": "MONTPELLIER",
    "activites": [],
    "lat": 43.5969231,
    "lng": 3.8546148
  },
  {
    "id": 125666,
    "nom": "JADIMMO",
    "siren": "993091198",
    "forme_juridique": "Société à responsabilité limitée",
    "adresse": "6 RUE DES POMMIERS",
    "code_postal": "34090",
    "ville": "MONTPELLIER",
    "activites": [],
    "lat": 43.6313688,
    "lng": 3.8576923
  },
  {
    "id": 104360,
    "nom": "BOUSCAREN IMMOBILIER",
    "siren": "949093496",
    "forme_juridique": "Société à responsabilité limitée",
    "adresse": "15 PASSAGE LONJON",
    "code_postal": "34000",
    "ville": "MONTPELLIER",
    "activites": [],
    "lat": 43.609084,
    "lng": 3.8797718
  },
  {
    "id": 67490,
    "nom": "GBP GILLES BIOSCA PATRIMOINE",
    "siren": "902934199",
    "forme_juridique": "Société par actions simplifiée",
    "adresse": "6 BOULEVARD BERTHELOT",
    "code_postal": "34000",
    "ville": "MONTPELLIER",
    "activites": [],
    "lat": 43.6007664,
    "lng": 3.8701857
  },
  {
    "id": 8806,
    "nom": "Non renseigné",
    "siren": "439157330",
    "forme_juridique": "",
    "adresse": "35 RUE DE LA CAVALERIE",
    "code_postal": "34000",
    "ville": "MONTPELLIER",
    "activites": [],
    "lat": 43.6173145,
    "lng": 3.8813317
  },
  {
    "id": 8818,
    "nom": "AGENCE PROBY-SOCIETE COMMERCIALE ET IMMOBILIERE DE TRANSACTIONS SCIT",
    "siren": "333321255",
    "forme_juridique": "Société à responsabilité limitée",
    "adresse": "501 RUE Professeurs Truc",
    "code_postal": "34090",
    "ville": "MONTPELLIER",
    "activites": [],
    "lat": 43.6343197,
    "lng": 3.8443513
  },
  {
    "id": 67938,
    "nom": "MG IMMOBILIER",
    "siren": "888571940",
    "forme_juridique": "Société par actions simplifiée",
    "adresse": "48 AVENUE DE TOULOUSE",
    "code_postal": "34070",
    "ville": "MONTPELLIER",
    "activites": [],
    "lat": 43.5981414,
    "lng": 3.8648589
  },
  {
    "id": 37949,
    "nom": "BERGE IMMOBILIER REALTY",
    "siren": "838705374",
    "forme_juridique": "Société par actions simplifiée",
    "adresse": "256 RUE DE THOR",
    "code_postal": "34000",
    "ville": "MONTPELLIER",
    "activites": [],
    "lat": 43.618416,
    "lng": 3.9162165
  },
  {
    "id": 11037,
    "nom": "AGENCE DU TRIOLET",
    "siren": "322323148",
    "forme_juridique": "Société à responsabilité limitée",
    "adresse": "58 RUE DU TRIOLET",
    "code_postal": "34000",
    "ville": "MONTPELLIER",
    "activites": [],
    "lat": 43.6238943,
    "lng": 3.8635204
  },
  {
    "id": 9136,
    "nom": "CABINET PECOUL",
    "siren": "322747486",
    "forme_juridique": "Société par actions simplifiée",
    "adresse": "1732 AVENUE DE MONSIEUR TESTE",
    "code_postal": "34070",
    "ville": "MONTPELLIER",
    "activites": [],
    "lat": 43.5994218,
    "lng": 3.8406038
  },
  {
    "id": 12019,
    "nom": "MONTPELLIERAINE D'ADMINISTRATION DE BIENS",
    "siren": "414920884",
    "forme_juridique": "Société à responsabilité limitée",
    "adresse": "17 RUE DE MAGUELONE",
    "code_postal": "34000",
    "ville": "MONTPELLIER",
    "activites": [],
    "lat": 43.6066055,
    "lng": 3.8800231
  },
  {
    "id": 14096,
    "nom": "MERCOM TRANSACTIONS",
    "siren": "433060282",
    "forme_juridique": "Société à responsabilité limitée",
    "adresse": "64 AVENUE DU PONT JUVENAL",
    "code_postal": "34000",
    "ville": "MONTPELLIER",
    "activites": [],
    "lat": 43.6054105,
    "lng": 3.8892367
  },
  {
    "id": 14075,
    "nom": "ACTEUR SUD IMMOBILIER",
    "siren": "445352529",
    "forme_juridique": "Société à responsabilité limitée",
    "adresse": "51 RUE DU FAUBOURG BOUTONNET",
    "code_postal": "34090",
    "ville": "MONTPELLIER",
    "activites": [],
    "lat": 43.6197247,
    "lng": 3.8732118
  },
  {
    "id": 14659,
    "nom": "ACTUEL IMMOBILIER",
    "siren": "450488069",
    "forme_juridique": "Société à responsabilité limitée",
    "adresse": "4 RUE DE SUBSTANTION",
    "code_postal": "34000",
    "ville": "MONTPELLIER",
    "activites": [],
    "lat": 43.6157204,
    "lng": 3.8823839
  },
  {
    "id": 18169,
    "nom": "PATRIMCITY",
    "siren": "822134185",
    "forme_juridique": "Société à responsabilité limitée",
    "adresse": "280 AVENUE GERMAINE TILLION",
    "code_postal": "34070",
    "ville": "MONTPELLIER",
    "activites": [],
    "lat": 43.596939,
    "lng": 3.8957835
  },
  {
    "id": 21199,
    "nom": "ACN IMMO CONSEIL",
    "siren": "485300065",
    "forme_juridique": "Société à responsabilité limitée",
    "adresse": "12 BOULEVARD VICTOR HUGO",
    "code_postal": "34000",
    "ville": "MONTPELLIER",
    "activites": [],
    "lat": 43.6068322,
    "lng": 3.8782414
  },
  {
    "id": 21143,
    "nom": "FRANCE GESTION",
    "siren": "381898535",
    "forme_juridique": "Société à responsabilité limitée",
    "adresse": "107 AVENUE SAMUEL CHAMPLAIN",
    "code_postal": "34000",
    "ville": "MONTPELLIER",
    "activites": [],
    "lat": 43.6072207,
    "lng": 3.8897785
  },
  {
    "id": 21629,
    "nom": "URBAN IMMO",
    "siren": "491636452",
    "forme_juridique": "Société à responsabilité limitée",
    "adresse": "278 PLACE ERNEST GRANIER",
    "code_postal": "34000",
    "ville": "MONTPELLIER",
    "activites": [],
    "lat": 43.6015344,
    "lng": 3.9002685
  },
  {
    "id": 21769,
    "nom": "AK ASSOCIES",
    "siren": "498887991",
    "forme_juridique": "Société à responsabilité limitée",
    "adresse": "51 RUE Pomier Layrargues",
    "code_postal": "34070",
    "ville": "MONTPELLIER",
    "activites": [],
    "lat": 43.5927597,
    "lng": 3.8788699
  },
  {
    "id": 22036,
    "nom": "ECUSSON IMMOBILIER",
    "siren": "408199883",
    "forme_juridique": "Société à responsabilité limitée",
    "adresse": "3 RUE Saint-Côme",
    "code_postal": "34000",
    "ville": "MONTPELLIER",
    "activites": [],
    "lat": 43.6083749,
    "lng": 3.8761677
  },
  {
    "id": 22917,
    "nom": "IMMOTER34",
    "siren": "824923148",
    "forme_juridique": "Société par actions simplifiée",
    "adresse": "35 RUE JEAN FERRAT",
    "code_postal": "34000",
    "ville": "MONTPELLIER",
    "activites": [],
    "lat": 43.5995038,
    "lng": 3.9067183
  },
  {
    "id": 23291,
    "nom": "MARIANNE IMMOBILIER ",
    "siren": "434292512",
    "forme_juridique": "Société à responsabilité limitée",
    "adresse": "91 AVENUE DU PONT JUVENAL",
    "code_postal": "34000",
    "ville": "MONTPELLIER",
    "activites": [],
    "lat": 43.6057433,
    "lng": 3.8932463
  },
  {
    "id": 24004,
    "nom": "JFLM",
    "siren": "824802649",
    "forme_juridique": "Société par actions simplifiée",
    "adresse": "406 AVENUE DE LA JUSTICE DE CASTELNAU",
    "code_postal": "34090",
    "ville": "MONTPELLIER",
    "activites": [],
    "lat": 43.626671,
    "lng": 3.8747203
  },
  {
    "id": 25595,
    "nom": "ECAB.EXPERT",
    "siren": "434800769",
    "forme_juridique": "Société à responsabilité limitée",
    "adresse": "48 RUE Claude Balbastre",
    "code_postal": "34070",
    "ville": "MONTPELLIER",
    "activites": [],
    "lat": 43.5731943,
    "lng": 3.8613862
  },
  {
    "id": 26995,
    "nom": "GRAND OLIVIER CONSEILS",
    "siren": "829674118",
    "forme_juridique": "Société à responsabilité limitée",
    "adresse": "3 PLACE MARCEL LEGAUT",
    "code_postal": "34070",
    "ville": "MONTPELLIER",
    "activites": [],
    "lat": 43.5953498,
    "lng": 3.9000242
  },
  {
    "id": 68833,
    "nom": "EXOPROM",
    "siren": "918647769",
    "forme_juridique": "Société par actions simplifiée",
    "adresse": "825 AVENUE DE LA POMPIGNANE",
    "code_postal": "34000",
    "ville": "MONTPELLIER",
    "activites": [],
    "lat": 43.6133648,
    "lng": 3.8980539
  },
  {
    "id": 32200,
    "nom": "LA LOGE",
    "siren": "834703316",
    "forme_juridique": "Société par actions simplifiée",
    "adresse": "16 RUE En Gondeau",
    "code_postal": "34000",
    "ville": "MONTPELLIER",
    "activites": [],
    "lat": 43.6073965,
    "lng": 3.8764696
  },
  {
    "id": 37184,
    "nom": "B.C. IMMOBILIER",
    "siren": "507700904",
    "forme_juridique": "Société à responsabilité limitée",
    "adresse": "17 RUE ESPRIT AUBER",
    "code_postal": "34000",
    "ville": "MONTPELLIER",
    "activites": [],
    "lat": 43.5792073,
    "lng": 3.8588732
  },
  {
    "id": 69256,
    "nom": "ARMONIAL PROPERTIES",
    "siren": "844840454",
    "forme_juridique": "Société par actions simplifiée",
    "adresse": "9 RUE DE LA VIEILLE INTENDANCE",
    "code_postal": "34000",
    "ville": "MONTPELLIER",
    "activites": [],
    "lat": 43.6120104,
    "lng": 3.8758392
  },
  {
    "id": 40699,
    "nom": "EGERIM CONSEIL",
    "siren": "394815203",
    "forme_juridique": "Société à responsabilité limitée",
    "adresse": "16 AVENUE D'Assas",
    "code_postal": "34000",
    "ville": "MONTPELLIER",
    "activites": [],
    "lat": 43.613364,
    "lng": 3.8667934
  },
  {
    "id": 41845,
    "nom": "Z&M INVESTISSEMENT",
    "siren": "833172307",
    "forme_juridique": "Société à responsabilité limitée",
    "adresse": "1025 AVENUE HENRI BECQUEREL",
    "code_postal": "34000",
    "ville": "MONTPELLIER",
    "activites": [],
    "lat": 43.6089644,
    "lng": 3.9155257
  },
  {
    "id": 69504,
    "nom": "MAISON BO.SA",
    "siren": "914436340",
    "forme_juridique": "Société par actions simplifiée",
    "adresse": "15 PASSAGE Lonjon",
    "code_postal": "34000",
    "ville": "MONTPELLIER",
    "activites": [],
    "lat": 43.609084,
    "lng": 3.8797718
  },
  {
    "id": 39551,
    "nom": "CLARIMMO",
    "siren": "800568230",
    "forme_juridique": "Société par actions simplifiée",
    "adresse": "7 RUE FREDERIC BAZILLE",
    "code_postal": "34000",
    "ville": "MONTPELLIER",
    "activites": [],
    "lat": 43.6029497,
    "lng": 3.8800169
  },
  {
    "id": 48690,
    "nom": "CABINET LA MONTPELLIERAINE DE L'IMMOBILIER",
    "siren": "797908928",
    "forme_juridique": "Société à responsabilité limitée",
    "adresse": "12 RUE DE LA REPUBLIQUE",
    "code_postal": "34000",
    "ville": "MONTPELLIER",
    "activites": [],
    "lat": 43.6055701,
    "lng": 3.8785314
  },
  {
    "id": 47809,
    "nom": "THELENE ENTREPRISES",
    "siren": "401161112",
    "forme_juridique": "Société par actions simplifiée",
    "adresse": "63 ALLÉE NIELS BOHR",
    "code_postal": "34000",
    "ville": "MONTPELLIER",
    "activites": [],
    "lat": 43.61205,
    "lng": 3.913942
  },
  {
    "id": 49333,
    "nom": "JAD PATRIMOINE",
    "siren": "843579400",
    "forme_juridique": "Société par actions simplifiée",
    "adresse": "1025 AVENUE HENRI BECQUEREL",
    "code_postal": "34000",
    "ville": "MONTPELLIER",
    "activites": [],
    "lat": 43.6089644,
    "lng": 3.9155257
  },
  {
    "id": 49824,
    "nom": "PORTAL INVEST",
    "siren": "532204591",
    "forme_juridique": "Société à responsabilité limitée",
    "adresse": "26 ALLÉE JULES MILHAU",
    "code_postal": "34000",
    "ville": "MONTPELLIER",
    "activites": [],
    "lat": 43.6088471,
    "lng": 3.8825035
  },
  {
    "id": 50641,
    "nom": "CARREMENT TRANSAC",
    "siren": "852454834",
    "forme_juridique": "Société à responsabilité limitée",
    "adresse": "2 BOULEVARD VICTOR HUGO",
    "code_postal": "34000",
    "ville": "MONTPELLIER",
    "activites": [],
    "lat": 43.6063,
    "lng": 3.8779396
  },
  {
    "id": 51637,
    "nom": "RCI",
    "siren": "481088888",
    "forme_juridique": "Société par actions simplifiée",
    "adresse": "3 RUE EUGENE VARLIN",
    "code_postal": "34000",
    "ville": "MONTPELLIER",
    "activites": [],
    "lat": 43.6128468,
    "lng": 3.8680622
  },
  {
    "id": 51805,
    "nom": "CHRISTOPHE JAY IMMOBILIER",
    "siren": "415271238",
    "forme_juridique": "Société à responsabilité limitée",
    "adresse": "1 PLACE De La Canourgue",
    "code_postal": "34000",
    "ville": "MONTPELLIER",
    "activites": [],
    "lat": 43.6115568,
    "lng": 3.8740803
  },
  {
    "id": 52100,
    "nom": "FM IMMOBILIER",
    "siren": "878970813",
    "forme_juridique": "Société à responsabilité limitée",
    "adresse": "245 AVENUE MARIE DE MONTPELLIER",
    "code_postal": "34000",
    "ville": "MONTPELLIER",
    "activites": [],
    "lat": 43.6008147,
    "lng": 3.8981015
  },
  {
    "id": 52349,
    "nom": "VOTRE INVESTISSEMENT PATRIMONIAL GESTION",
    "siren": "401947270",
    "forme_juridique": "Société à responsabilité limitée",
    "adresse": "6 PLACE DU MARCHE AUX FLEURS",
    "code_postal": "34000",
    "ville": "MONTPELLIER",
    "activites": [],
    "lat": 43.6114686,
    "lng": 3.8778587
  },
  {
    "id": 53883,
    "nom": "THELENE IMMOBILIER",
    "siren": "400531802",
    "forme_juridique": "Société par actions simplifiée",
    "adresse": "63 ALLÉE NIELS BOHR",
    "code_postal": "34000",
    "ville": "MONTPELLIER",
    "activites": [],
    "lat": 43.61205,
    "lng": 3.913942
  },
  {
    "id": 54542,
    "nom": "KAIROS OPPORTUNITES",
    "siren": "853063154",
    "forme_juridique": "Société à responsabilité limitée",
    "adresse": "1300 AVENUE Albert Einstein",
    "code_postal": "34000",
    "ville": "MONTPELLIER",
    "activites": [],
    "lat": 43.6100379,
    "lng": 3.9129262
  },
  {
    "id": 64135,
    "nom": "GROUPE MJ IMMO",
    "siren": "912571825",
    "forme_juridique": "Société par actions simplifiée",
    "adresse": "6 BOULEVARD BERTHELOT",
    "code_postal": "34000",
    "ville": "MONTPELLIER",
    "activites": [],
    "lat": 43.6007664,
    "lng": 3.8701857
  },
  {
    "id": 55039,
    "nom": "Non renseigné",
    "siren": "849720214",
    "forme_juridique": "",
    "adresse": "9 AVENUE DE LA GAILLARDE",
    "code_postal": "34000",
    "ville": "MONTPELLIER",
    "activites": [],
    "lat": 43.6139408,
    "lng": 3.864877
  },
  {
    "id": 26939,
    "nom": "UNIK IMMOBILIER",
    "siren": "493546634",
    "forme_juridique": "Société à responsabilité limitée",
    "adresse": "23 AVENUE Georges Clémenceau",
    "code_postal": "34000",
    "ville": "MONTPELLIER",
    "activites": [],
    "lat": 43.6037334,
    "lng": 3.8729246
  },
  {
    "id": 57506,
    "nom": "AVENIR TRANSACT IMMOBILIER",
    "siren": "444321947",
    "forme_juridique": "Société par actions simplifiée",
    "adresse": "32 RUE DES CHASSEURS",
    "code_postal": "34070",
    "ville": "MONTPELLIER",
    "activites": [],
    "lat": 43.599396,
    "lng": 3.8608398
  },
  {
    "id": 331,
    "nom": "IMMO ANGELS",
    "siren": "812601086",
    "forme_juridique": "Société par actions simplifiée",
    "adresse": "1025 AVENUE HENRI BECQUEREL",
    "code_postal": "34000",
    "ville": "MONTPELLIER",
    "activites": [],
    "lat": 43.6089644,
    "lng": 3.9155257
  },
  {
    "id": 111574,
    "nom": "KERYLOS",
    "siren": "989563861",
    "forme_juridique": "Société par actions simplifiée",
    "adresse": "270 CHEMIN DE POUTINGON",
    "code_postal": "34070",
    "ville": "MONTPELLIER",
    "activites": [],
    "lat": 43.5849601,
    "lng": 3.8545777
  },
  {
    "id": 13261,
    "nom": "CABINET OLIVERES",
    "siren": "420724569",
    "forme_juridique": "Société à responsabilité limitée",
    "adresse": "10 RUE BONNIER D 'ALCO",
    "code_postal": "34000",
    "ville": "MONTPELLIER",
    "activites": [],
    "lat": 43.6118468,
    "lng": 3.8764519
  },
  {
    "id": 64957,
    "nom": "QUADRIMM",
    "siren": "914606538",
    "forme_juridique": "Société par actions simplifiée",
    "adresse": "1321 AVENUE de la Pompignane",
    "code_postal": "34000",
    "ville": "MONTPELLIER",
    "activites": [],
    "lat": 43.6178079,
    "lng": 3.8972193
  },
  {
    "id": 36886,
    "nom": "AUDIT INVEST",
    "siren": "441546363",
    "forme_juridique": "Société à responsabilité limitée",
    "adresse": "28 AVENUE De Maurin",
    "code_postal": "34000",
    "ville": "MONTPELLIER",
    "activites": [],
    "lat": 43.6009097,
    "lng": 3.8751951
  },
  {
    "id": 50046,
    "nom": "BOULENC IMMOBILIER",
    "siren": "851816793",
    "forme_juridique": "Société par actions simplifiée",
    "adresse": "16 RUE CHAPTAL",
    "code_postal": "34000",
    "ville": "MONTPELLIER",
    "activites": [],
    "lat": 43.6048296,
    "lng": 3.8696146
  },
  {
    "id": 60287,
    "nom": "GAYSANZ IMMOBILIER",
    "siren": "901501551",
    "forme_juridique": "Société par actions simplifiée",
    "adresse": "27 RUE PIERRE ANTONINI",
    "code_postal": "34000",
    "ville": "MONTPELLIER",
    "activites": [],
    "lat": 43.6394312,
    "lng": 3.8388983
  },
  {
    "id": 13998,
    "nom": "YORICK IMMOBILIER",
    "siren": "421338005",
    "forme_juridique": "Société à responsabilité limitée",
    "adresse": "166 RUE JEAN THUILE",
    "code_postal": "34090",
    "ville": "MONTPELLIER",
    "activites": [],
    "lat": 43.6304319,
    "lng": 3.873558
  },
  {
    "id": 17578,
    "nom": "RESEAU FRANCE IMMOBILIER",
    "siren": "822080289",
    "forme_juridique": "Société à responsabilité limitée",
    "adresse": "22 RUE GEORGES DENIZOT",
    "code_postal": "34090",
    "ville": "MONTPELLIER",
    "activites": [],
    "lat": 43.6420393,
    "lng": 3.8446083
  },
  {
    "id": 42232,
    "nom": "LES 4 DRAGONS",
    "siren": "838723245",
    "forme_juridique": "Société à responsabilité limitée",
    "adresse": "1 RUE Saint-Paul",
    "code_postal": "34000",
    "ville": "MONTPELLIER",
    "activites": [],
    "lat": 43.6087349,
    "lng": 3.8756474
  },
  {
    "id": 60914,
    "nom": "S.CONSULTING IMMOBILIER",
    "siren": "807526314",
    "forme_juridique": "Société par actions simplifiée",
    "adresse": "6 BOULEVARD Berthelot",
    "code_postal": "34000",
    "ville": "MONTPELLIER",
    "activites": [],
    "lat": 43.6007664,
    "lng": 3.8701857
  },
  {
    "id": 66479,
    "nom": "CREATIF PATRIMOINE",
    "siren": "501276695",
    "forme_juridique": "Société à responsabilité limitée",
    "adresse": "17 QUAI LAURENS",
    "code_postal": "34000",
    "ville": "MONTPELLIER",
    "activites": [],
    "lat": 43.6046424,
    "lng": 3.8893202
  },
  {
    "id": 62001,
    "nom": "OCCITANIE LUXURY REALTY",
    "siren": "901398339",
    "forme_juridique": "Société à responsabilité limitée",
    "adresse": "1 RUE DU PETIT SCEL",
    "code_postal": "34000",
    "ville": "MONTPELLIER",
    "activites": [],
    "lat": 43.6107269,
    "lng": 3.8747079
  },
  {
    "id": 52630,
    "nom": "LGTI PLANETE",
    "siren": "440095107",
    "forme_juridique": "Société à responsabilité limitée",
    "adresse": "4 PLACE ALEXANDRE LAISSAC",
    "code_postal": "34000",
    "ville": "MONTPELLIER",
    "activites": [],
    "lat": 43.6056771,
    "lng": 3.8766947
  },
  {
    "id": 24026,
    "nom": "FANTASIA",
    "siren": "480845544",
    "forme_juridique": "Société à responsabilité limitée",
    "adresse": "62 AVENUE SAMUEL CHAMPLAIN",
    "code_postal": "34000",
    "ville": "MONTPELLIER",
    "activites": [],
    "lat": 43.6069934,
    "lng": 3.8892734
  },
  {
    "id": 6406,
    "nom": "CABINET UNITEAM",
    "siren": "814910212",
    "forme_juridique": "Société à responsabilité limitée",
    "adresse": "49 AVENUE GEORGES CLEMENCEAU",
    "code_postal": "34000",
    "ville": "MONTPELLIER",
    "activites": [],
    "lat": 43.6021516,
    "lng": 3.8700514
  },
  {
    "id": 50850,
    "nom": "AGGI 34",
    "siren": "842595886",
    "forme_juridique": "Société par actions simplifiée",
    "adresse": "48 RUE CLAUDE BALBASTRE",
    "code_postal": "34070",
    "ville": "MONTPELLIER",
    "activites": [],
    "lat": 43.5731943,
    "lng": 3.8613862
  },
  {
    "id": 58401,
    "nom": "GRIFFON'S",
    "siren": "895351419",
    "forme_juridique": "Société à responsabilité limitée",
    "adresse": "76 ALLÉE WILHELM ROENTGEN",
    "code_postal": "34000",
    "ville": "MONTPELLIER",
    "activites": [],
    "lat": 43.6116591,
    "lng": 3.913655
  },
  {
    "id": 29836,
    "nom": "L'AGENCE ROXIM",
    "siren": "499934420",
    "forme_juridique": "Société à responsabilité limitée",
    "adresse": "448 RUE De la Roqueturiere",
    "code_postal": "34090",
    "ville": "MONTPELLIER",
    "activites": [],
    "lat": 43.6299818,
    "lng": 3.8859784
  },
  {
    "id": 69770,
    "nom": "GAMBETTA OCCITANIE",
    "siren": "702045360",
    "forme_juridique": "SA à conseil d’administration",
    "adresse": "418 RUE DU MAS DE VERCHANT",
    "code_postal": "34000",
    "ville": "MONTPELLIER",
    "activites": [],
    "lat": 43.6198635,
    "lng": 3.9133271
  },
  {
    "id": 29132,
    "nom": "APSARA",
    "siren": "830884888",
    "forme_juridique": "Société à responsabilité limitée",
    "adresse": "174 RUE GUILLAUME JANVIER",
    "code_postal": "34070",
    "ville": "MONTPELLIER",
    "activites": [],
    "lat": 43.5960907,
    "lng": 3.8659195
  },
  {
    "id": 70297,
    "nom": "CREALYS FINANCES",
    "siren": "815340385",
    "forme_juridique": "Société à responsabilité limitée",
    "adresse": "113 RUE RAYMOND RECOULY",
    "code_postal": "34070",
    "ville": "MONTPELLIER",
    "activites": [],
    "lat": 43.5756006,
    "lng": 3.8665415
  },
  {
    "id": 4000,
    "nom": "HOPITAUX FACULTES IMMOBILIER",
    "siren": "815178173",
    "forme_juridique": "Société à responsabilité limitée",
    "adresse": "250 ROUTE DE MENDE",
    "code_postal": "34090",
    "ville": "MONTPELLIER",
    "activites": [],
    "lat": 43.6250295,
    "lng": 3.8711905
  },
  {
    "id": 87708,
    "nom": "Menardo Properties",
    "siren": "931588792",
    "forme_juridique": "Société par actions simplifiée",
    "adresse": "2 RUE placentin",
    "code_postal": "34000",
    "ville": "MONTPELLIER",
    "activites": [],
    "lat": 43.6112523,
    "lng": 3.8733293
  },
  {
    "id": 19086,
    "nom": "ALOES",
    "siren": "492353313",
    "forme_juridique": "Société par actions simplifiée",
    "adresse": "185 RUE LEON BLUM",
    "code_postal": "34000",
    "ville": "MONTPELLIER",
    "activites": [],
    "lat": 43.6086802,
    "lng": 3.8907499
  },
  {
    "id": 56043,
    "nom": "M.A.R. GESTION",
    "siren": "887985562",
    "forme_juridique": "Société par actions simplifiée",
    "adresse": "31 RUE ERNEST MICHEL",
    "code_postal": "34000",
    "ville": "MONTPELLIER",
    "activites": [],
    "lat": 43.6001491,
    "lng": 3.8735311
  },
  {
    "id": 61309,
    "nom": "STRATEGIE CROISSANCE PATRIMOINE IMMOBILIER",
    "siren": "852723998",
    "forme_juridique": "Société à responsabilité limitée",
    "adresse": "450 RUE BADEN POWELL",
    "code_postal": "34000",
    "ville": "MONTPELLIER",
    "activites": [],
    "lat": 43.6100821,
    "lng": 3.908255
  },
  {
    "id": 42874,
    "nom": "ABGL IMMOBILIER",
    "siren": "484411624",
    "forme_juridique": "Société à responsabilité limitée",
    "adresse": "56 RUE PAUL ELUARD",
    "code_postal": "34080",
    "ville": "MONTPELLIER",
    "activites": [],
    "lat": 43.6201895,
    "lng": 3.836869
  },
  {
    "id": 21198,
    "nom": "PATRI  IMMO",
    "siren": "378940514",
    "forme_juridique": "Société à responsabilité limitée",
    "adresse": "621 RUE GEORGES MELIES",
    "code_postal": "34000",
    "ville": "MONTPELLIER",
    "activites": [],
    "lat": 43.6066572,
    "lng": 3.9215943
  },
  {
    "id": 62748,
    "nom": "HERES TRANSACTIONS",
    "siren": "907810030",
    "forme_juridique": "Société à responsabilité limitée",
    "adresse": "24 RUE Bourrely",
    "code_postal": "34000",
    "ville": "MONTPELLIER",
    "activites": [],
    "lat": 43.6031256,
    "lng": 3.8689243
  },
  {
    "id": 96273,
    "nom": "HAPPY GESTION",
    "siren": "524364569",
    "forme_juridique": "Société par actions simplifiée",
    "adresse": "53 PLACE Thermidor",
    "code_postal": "34000",
    "ville": "MONTPELLIER",
    "activites": [],
    "lat": 43.6015537,
    "lng": 3.8984664
  },
  {
    "id": 96385,
    "nom": "FRANALA",
    "siren": "794064048",
    "forme_juridique": "Société par actions simplifiée",
    "adresse": "9 RUE DE VERDUN",
    "code_postal": "34000",
    "ville": "MONTPELLIER",
    "activites": [],
    "lat": 43.6074942,
    "lng": 3.8805114
  },
  {
    "id": 96981,
    "nom": "AMC REAL ESTATE",
    "siren": "931849772",
    "forme_juridique": "Société par actions simplifiée",
    "adresse": "42 AVENUE du Pic St Loup",
    "code_postal": "34090",
    "ville": "MONTPELLIER",
    "activites": [],
    "lat": 43.6414882,
    "lng": 3.8616145
  }
]